{
    "type": "FeatureCollection",
    "name": "LVM_SABIEDRIBAI_NOZIMIGAS_VIETAS_Shape",
    "crs": { "type": "name", "properties": { "name": "urn:ogc:def:crs:EPSG::3059" } },
    "features": [
    { "type": "Feature", "properties": { "PLACENAME": "Atpūtas vieta pie Kaļņa ezera", "PLACESUBTY": 2, "REG_CODE": "1", "LVM_DISTRI": "22128", "BLOCKKEY": "111-633" }, "geometry": { "type": "Point", "coordinates": [ 680527.978100169100799, 332724.626692906022072 ] } },
    { "type": "Feature", "properties": { "PLACENAME": "Piemiņas vieta \"Īles bunkurs\"", "PLACESUBTY": 8, "REG_CODE": "6", "LVM_DISTRI": "22625", "BLOCKKEY": "606-84" }, "geometry": { "type": "Point", "coordinates": [ 433957.672499996901024, 271032.412799982354045 ] } },
    { "type": "Feature", "properties": { "PLACENAME": "Atpūtas vieta pie Pinku ezera", "PLACESUBTY": 2, "REG_CODE": "2", "LVM_DISTRI": "22221", "BLOCKKEY": "201-332" }, "geometry": { "type": "Point", "coordinates": [ 359822.431899868301116, 319740.110098467208445 ] } },
    { "type": "Feature", "properties": { "PLACENAME": "Atpūtas vieta pie Ziloņa ezera", "PLACESUBTY": 2, "REG_CODE": "2", "LVM_DISTRI": "22222", "BLOCKKEY": "202-47" }, "geometry": { "type": "Point", "coordinates": [ 395926.032499965338502, 332161.638199738226831 ] } },
    { "type": "Feature", "properties": { "PLACENAME": "Atpūtas vieta pie Avotu karjera", "PLACESUBTY": 2, "REG_CODE": "2", "LVM_DISTRI": "22223", "BLOCKKEY": "203-281" }, "geometry": { "type": "Point", "coordinates": [ 334685.940999776939861, 294886.939996005967259 ] } },
    { "type": "Feature", "properties": { "PLACENAME": "Fašisma upuru piemiņas vietas Rumbas pagastā", "PLACESUBTY": 8, "REG_CODE": "2", "LVM_DISTRI": "22222", "BLOCKKEY": "202-344" }, "geometry": { "type": "Point", "coordinates": [ 378857.769699929049239, 319046.426299360580742 ] } },
    { "type": "Feature", "properties": { "PLACENAME": "Atpūtas vieta \"Līkais mežs\"", "PLACESUBTY": 2, "REG_CODE": "2", "LVM_DISTRI": "22229", "BLOCKKEY": "211-346" }, "geometry": { "type": "Point", "coordinates": [ 407284.988699979847297, 279332.974899875931442 ] } },
    { "type": "Feature", "properties": { "PLACENAME": "Atpūtas vieta pie Cieceres upes", "PLACESUBTY": 2, "REG_CODE": "2", "LVM_DISTRI": "22225", "BLOCKKEY": "206-394" }, "geometry": { "type": "Point", "coordinates": [ 382672.143599937902763, 284177.533699494786561 ] } },
    { "type": "Feature", "properties": { "PLACENAME": "Atpūtas vieta pie Vārmes", "PLACESUBTY": 2, "REG_CODE": "2", "LVM_DISTRI": "22225", "BLOCKKEY": "206-200" }, "geometry": { "type": "Point", "coordinates": [ 387023.379699948825873, 303916.023099586367607 ] } },
    { "type": "Feature", "properties": { "PLACENAME": "Remtes parks", "PLACESUBTY": 1, "REG_CODE": "2", "LVM_DISTRI": "22226", "BLOCKKEY": "208-160" }, "geometry": { "type": "Point", "coordinates": [ 420275.656499990378506, 288870.148499947972596 ] } },
    { "type": "Feature", "properties": { "PLACENAME": "Atpūtas vieta \"Pūcīte\"", "PLACESUBTY": 2, "REG_CODE": "2", "LVM_DISTRI": "22227", "BLOCKKEY": "209-247" }, "geometry": { "type": "Point", "coordinates": [ 325561.985299738473259, 256959.544094742275774 ] } },
    { "type": "Feature", "properties": { "PLACENAME": "Atpūtas vieta \"Kalētu upmala\"", "PLACESUBTY": 2, "REG_CODE": "2", "LVM_DISTRI": "22227", "BLOCKKEY": "210-388" }, "geometry": { "type": "Point", "coordinates": [ 342396.386299782549031, 243454.442097185179591 ] } },
    { "type": "Feature", "properties": { "PLACENAME": "Slīteres avots", "PLACESUBTY": 1, "REG_CODE": "7", "LVM_DISTRI": "22722", "BLOCKKEY": "703-10" }, "geometry": { "type": "Point", "coordinates": [ 397702.133199968840927, 387293.011699747294188 ] } },
    { "type": "Feature", "properties": { "PLACENAME": "Atpūtas vieta dabas liegumā \"Dunika\"", "PLACESUBTY": 2, "REG_CODE": "2", "LVM_DISTRI": "22231", "BLOCKKEY": "213-472" }, "geometry": { "type": "Point", "coordinates": [ 337609.08239976078039, 239645.232696647755802 ] } },
    { "type": "Feature", "properties": { "PLACENAME": "Atpūtas vieta \"Bušnieki\"", "PLACESUBTY": 2, "REG_CODE": "7", "LVM_DISTRI": "22726", "BLOCKKEY": "701-390" }, "geometry": { "type": "Point", "coordinates": [ 359644.053199874120764, 368633.274598359130323 ] } },
    { "type": "Feature", "properties": { "PLACENAME": "Atpūtas vieta pie Tirziņas ietekas Gaujā", "PLACESUBTY": 2, "REG_CODE": "1", "LVM_DISTRI": "22124", "BLOCKKEY": "105-246" }, "geometry": { "type": "Point", "coordinates": [ 646037.625300145009533, 363671.26089793164283 ] } },
    { "type": "Feature", "properties": { "PLACENAME": "Atpūtas vieta \"Sēnīte\"", "PLACESUBTY": 2, "REG_CODE": "1", "LVM_DISTRI": "22124", "BLOCKKEY": "105-195" }, "geometry": { "type": "Point", "coordinates": [ 641528.200400131288916, 360598.529398293234408 ] } },
    { "type": "Feature", "properties": { "PLACENAME": "Atpūtas vieta pie Meistara ezera (Malstara ezers)", "PLACESUBTY": 2, "REG_CODE": "1", "LVM_DISTRI": "22125", "BLOCKKEY": "107-98" }, "geometry": { "type": "Point", "coordinates": [ 689227.108499985770322, 378375.203390042297542 ] } },
    { "type": "Feature", "properties": { "PLACENAME": "Atpūtas vieta \"Odzīte\"", "PLACESUBTY": 2, "REG_CODE": "3", "LVM_DISTRI": "22322", "BLOCKKEY": "302" }, "geometry": { "type": "Point", "coordinates": [ 631557.518000105861574, 267219.15109901688993 ] } },
    { "type": "Feature", "properties": { "PLACENAME": "Atpūtas vieta pie Klepiņu ezera", "PLACESUBTY": 2, "REG_CODE": "3", "LVM_DISTRI": "22327", "BLOCKKEY": "313-167" }, "geometry": { "type": "Point", "coordinates": [ 678122.910500326310284, 182960.316894560121 ] } },
    { "type": "Feature", "properties": { "PLACENAME": "Atpūtas vieta pie Mežmuižas ezera", "PLACESUBTY": 2, "REG_CODE": "2", "LVM_DISTRI": "22222", "BLOCKKEY": "202-28" }, "geometry": { "type": "Point", "coordinates": [ 395554.702199965133332, 332472.51049973256886 ] } },
    { "type": "Feature", "properties": { "PLACENAME": "Atpūtas vieta \"Sasaļu mežs\"", "PLACESUBTY": 2, "REG_CODE": "3", "LVM_DISTRI": "22327", "BLOCKKEY": "312-61" }, "geometry": { "type": "Point", "coordinates": [ 644158.504100163234398, 200420.751098434440792 ] } },
    { "type": "Feature", "properties": { "PLACENAME": "Atpūtas vieta pie Mastiņu ceļa", "PLACESUBTY": 2, "REG_CODE": "1", "LVM_DISTRI": "22127", "BLOCKKEY": "110-295" }, "geometry": { "type": "Point", "coordinates": [ 649109.40080015885178, 343469.712797715328634 ] } },
    { "type": "Feature", "properties": { "PLACENAME": "Atpūtas vieta pie Ratenieku ceļa", "PLACESUBTY": 2, "REG_CODE": "1", "LVM_DISTRI": "22127", "BLOCKKEY": "110-409" }, "geometry": { "type": "Point", "coordinates": [ 658074.910400183522142, 346470.793396745808423 ] } },
    { "type": "Feature", "properties": { "PLACENAME": "Atpūtas vieta pie Dambakalna ceļa", "PLACESUBTY": 2, "REG_CODE": "1", "LVM_DISTRI": "22127", "BLOCKKEY": "110-203" }, "geometry": { "type": "Point", "coordinates": [ 646241.926800147863105, 349170.241997951641679 ] } },
    { "type": "Feature", "properties": { "PLACENAME": "Atpūtas vieta pie Klajā purva ceļa", "PLACESUBTY": 2, "REG_CODE": "1", "LVM_DISTRI": "22127", "BLOCKKEY": "110-158" }, "geometry": { "type": "Point", "coordinates": [ 652610.160800165729597, 356003.290797331370413 ] } },
    { "type": "Feature", "properties": { "PLACENAME": "Atpūtas vieta \"Krievānu krustojums\"", "PLACESUBTY": 2, "REG_CODE": "5", "LVM_DISTRI": "22528", "BLOCKKEY": "510-380" }, "geometry": { "type": "Point", "coordinates": [ 565554.913600002997555, 241126.577499985694885 ] } },
    { "type": "Feature", "properties": { "PLACENAME": "Atpūtas vieta \"Pusdienu stiga\"", "PLACESUBTY": 2, "REG_CODE": "5", "LVM_DISTRI": "22528", "BLOCKKEY": "510-302" }, "geometry": { "type": "Point", "coordinates": [ 563183.530500003136694, 251841.263499986380339 ] } },
    { "type": "Feature", "properties": { "PLACENAME": "Fašisma upuru piemiņas vietas Rumbas pagastā", "PLACESUBTY": 8, "REG_CODE": "2", "LVM_DISTRI": "22222", "BLOCKKEY": "202-351" }, "geometry": { "type": "Point", "coordinates": [ 382355.736199938110076, 320054.905299463309348 ] } },
    { "type": "Feature", "properties": { "PLACENAME": "Atpūtas vieta \"Siržu vieta\"", "PLACESUBTY": 2, "REG_CODE": "5", "LVM_DISTRI": "22528", "BLOCKKEY": "510-195" }, "geometry": { "type": "Point", "coordinates": [ 559484.710400002193637, 257092.881299991160631 ] } },
    { "type": "Feature", "properties": { "PLACENAME": "Atpūtas vieta \"Rīteru karjers\"", "PLACESUBTY": 2, "REG_CODE": "5", "LVM_DISTRI": "22522", "BLOCKKEY": "503-368" }, "geometry": { "type": "Point", "coordinates": [ 591135.102900018449873, 276050.196499887853861 ] } },
    { "type": "Feature", "properties": { "PLACENAME": "Atpūtas vieta \"Pieci ceļi\"", "PLACESUBTY": 2, "REG_CODE": "5", "LVM_DISTRI": "22526", "BLOCKKEY": "508-147" }, "geometry": { "type": "Point", "coordinates": [ 530978.478600000147708, 285274.036799999885261 ] } },
    { "type": "Feature", "properties": { "PLACENAME": "Silenieku atpūtas vieta", "PLACESUBTY": 2, "REG_CODE": "5", "LVM_DISTRI": "22525", "BLOCKKEY": "506-290" }, "geometry": { "type": "Point", "coordinates": [ 569377.79980000469368, 259087.170499976724386 ] } },
    { "type": "Feature", "properties": { "PLACENAME": "Ozolkalnu atpūtas vieta", "PLACESUBTY": 2, "REG_CODE": "5", "LVM_DISTRI": "22525", "BLOCKKEY": "507-293" }, "geometry": { "type": "Point", "coordinates": [ 575373.04480000725016, 251667.71439996547997 ] } },
    { "type": "Feature", "properties": { "PLACENAME": "Atpūtas vieta \"Matraču ceļš\"", "PLACESUBTY": 2, "REG_CODE": "5", "LVM_DISTRI": "22525", "BLOCKKEY": "507-167" }, "geometry": { "type": "Point", "coordinates": [ 582279.674700011266395, 255373.795999940484762 ] } },
    { "type": "Feature", "properties": { "PLACENAME": "Jūgu krustojuma atpūtas vieta", "PLACESUBTY": 2, "REG_CODE": "5", "LVM_DISTRI": "22524", "BLOCKKEY": "506-269" }, "geometry": { "type": "Point", "coordinates": [ 567083.409900004277006, 260126.352399981580675 ] } },
    { "type": "Feature", "properties": { "PLACENAME": "Atpūtas vieta \"Bleķa briedis\"", "PLACESUBTY": 2, "REG_CODE": "5", "LVM_DISTRI": "22524", "BLOCKKEY": "506-39" }, "geometry": { "type": "Point", "coordinates": [ 562256.085700002266094, 270314.712199987843633 ] } },
    { "type": "Feature", "properties": { "PLACENAME": "Atpūtas vieta \"Berlīnes krusts\"", "PLACESUBTY": 2, "REG_CODE": "5", "LVM_DISTRI": "22523", "BLOCKKEY": "505-242" }, "geometry": { "type": "Point", "coordinates": [ 550470.904500001110137, 265839.610999995842576 ] } },
    { "type": "Feature", "properties": { "PLACENAME": "Atpūtas vieta \"Silenieku krusts\"", "PLACESUBTY": 2, "REG_CODE": "5", "LVM_DISTRI": "22523", "BLOCKKEY": "505-106" }, "geometry": { "type": "Point", "coordinates": [ 554059.455500001553446, 272717.600799993611872 ] } },
    { "type": "Feature", "properties": { "PLACENAME": "Atpūtas vieta \"Dunikas Skabāržu audze\"", "PLACESUBTY": 2, "REG_CODE": "2", "LVM_DISTRI": "22231", "BLOCKKEY": "213-554" }, "geometry": { "type": "Point", "coordinates": [ 339060.383899765321985, 235836.446196839213371 ] } },
    { "type": "Feature", "properties": { "PLACENAME": "Atpūtas vieta pie Slujas ezera", "PLACESUBTY": 2, "REG_CODE": "2", "LVM_DISTRI": "22222", "BLOCKKEY": "202-160" }, "geometry": { "type": "Point", "coordinates": [ 389633.103799953940324, 329204.772499630227685 ] } },
    { "type": "Feature", "properties": { "PLACENAME": "Atpūtas vieta pie Ziloņa ezera", "PLACESUBTY": 2, "REG_CODE": "2", "LVM_DISTRI": "22222", "BLOCKKEY": "202-47" }, "geometry": { "type": "Point", "coordinates": [ 396096.970599965483416, 332872.921099739149213 ] } },
    { "type": "Feature", "properties": { "PLACENAME": "Atpūtas vietas pie Segliņu ezera", "PLACESUBTY": 2, "REG_CODE": "2", "LVM_DISTRI": "22222", "BLOCKKEY": "202-170" }, "geometry": { "type": "Point", "coordinates": [ 394687.829799963918049, 329510.991999719291925 ] } },
    { "type": "Feature", "properties": { "PLACENAME": "Atpūtas vieta pie Lašupes dzirnavu dīķa", "PLACESUBTY": 2, "REG_CODE": "2", "LVM_DISTRI": "22226", "BLOCKKEY": "207-291" }, "geometry": { "type": "Point", "coordinates": [ 395423.14309996413067, 286477.50129974540323 ] } },
    { "type": "Feature", "properties": { "PLACENAME": "Atpūtas vieta pie Baltezera", "PLACESUBTY": 2, "REG_CODE": "3", "LVM_DISTRI": "22322", "BLOCKKEY": "302-66" }, "geometry": { "type": "Point", "coordinates": [ 634297.795100114541128, 278432.435898873955011 ] } },
    { "type": "Feature", "properties": { "PLACENAME": "Sudmaļu pilskalns", "PLACESUBTY": 1, "REG_CODE": "3", "LVM_DISTRI": "22327", "BLOCKKEY": "312-94" }, "geometry": { "type": "Point", "coordinates": [ 646495.401200175401755, 197449.193898283876479 ] } },
    { "type": "Feature", "properties": { "PLACENAME": "Atpūtas vieta \"Zemenīte\"", "PLACESUBTY": 2, "REG_CODE": "3", "LVM_DISTRI": "22326", "BLOCKKEY": "310-261" }, "geometry": { "type": "Point", "coordinates": [ 673021.979700300609693, 196962.412395351566374 ] } },
    { "type": "Feature", "properties": { "PLACENAME": "Atpūtas vieta \"Krauja\"", "PLACESUBTY": 2, "REG_CODE": "3", "LVM_DISTRI": "22326", "BLOCKKEY": "312-271" }, "geometry": { "type": "Point", "coordinates": [ 680069.744800317450427, 197937.773294084705412 ] } },
    { "type": "Feature", "properties": { "PLACENAME": "Atpūtas vieta pie Daugavas", "PLACESUBTY": 2, "REG_CODE": "3", "LVM_DISTRI": "22326", "BLOCKKEY": "313-271" }, "geometry": { "type": "Point", "coordinates": [ 695621.919400270096958, 198004.587590279988945 ] } },
    { "type": "Feature", "properties": { "PLACENAME": "Atpūtas vieta pie Gaišā ezera", "PLACESUBTY": 2, "REG_CODE": "3", "LVM_DISTRI": "22325", "BLOCKKEY": "309-342" }, "geometry": { "type": "Point", "coordinates": [ 655321.729100218391977, 202081.220997549593449 ] } },
    { "type": "Feature", "properties": { "PLACENAME": "Lielais Nīcgales akmens", "PLACESUBTY": 1, "REG_CODE": "3", "LVM_DISTRI": "22325", "BLOCKKEY": "309-154" }, "geometry": { "type": "Point", "coordinates": [ 652914.933100201189518, 225751.51699770335108 ] } },
    { "type": "Feature", "properties": { "PLACENAME": "Atpūtas vieta \"Pūcīte\"", "PLACESUBTY": 2, "REG_CODE": "3", "LVM_DISTRI": "22324", "BLOCKKEY": "304-235" }, "geometry": { "type": "Point", "coordinates": [ 627357.701500093680806, 232540.650399223901331 ] } },
    { "type": "Feature", "properties": { "PLACENAME": "Atpūtas vieta \"Sēnīte\"", "PLACESUBTY": 2, "REG_CODE": "3", "LVM_DISTRI": "22324", "BLOCKKEY": "307-187" }, "geometry": { "type": "Point", "coordinates": [ 633723.135000115958974, 229389.104198965243995 ] } },
    { "type": "Feature", "properties": { "PLACENAME": "Atpūtas vieta \"Raktais ceļš\"", "PLACESUBTY": 2, "REG_CODE": "3", "LVM_DISTRI": "22324", "BLOCKKEY": "308-22" }, "geometry": { "type": "Point", "coordinates": [ 637235.043300130520947, 225622.271398796699941 ] } },
    { "type": "Feature", "properties": { "PLACENAME": "Atpūtas vieta \"Pie mežniecības\"", "PLACESUBTY": 2, "REG_CODE": "3", "LVM_DISTRI": "22324", "BLOCKKEY": "308-105" }, "geometry": { "type": "Point", "coordinates": [ 641759.33860015112441, 217429.284098555333912 ] } },
    { "type": "Feature", "properties": { "PLACENAME": "Atpūtas vieta \"Zolvas krasts\"", "PLACESUBTY": 2, "REG_CODE": "3", "LVM_DISTRI": "22323", "BLOCKKEY": "306-278" }, "geometry": { "type": "Point", "coordinates": [ 686640.050800266559236, 235292.123592321760952 ] } },
    { "type": "Feature", "properties": { "PLACENAME": "Rušenicas pilskalns", "PLACESUBTY": 1, "REG_CODE": "3", "LVM_DISTRI": "22323", "BLOCKKEY": "306-282" }, "geometry": { "type": "Point", "coordinates": [ 687905.09410026227124, 234187.141392014920712 ] } },
    { "type": "Feature", "properties": { "PLACENAME": "Atpūtas vieta \"Šusta ceļš\"", "PLACESUBTY": 2, "REG_CODE": "3", "LVM_DISTRI": "22323", "BLOCKKEY": "306-235" }, "geometry": { "type": "Point", "coordinates": [ 667369.834400260006078, 234329.160396009683609 ] } },
    { "type": "Feature", "properties": { "PLACENAME": "Atpūtas vieta \"Tīteņi Steķu silā\"", "PLACESUBTY": 2, "REG_CODE": "3", "LVM_DISTRI": "22323", "BLOCKKEY": "306-15" }, "geometry": { "type": "Point", "coordinates": [ 637117.654100127634592, 253014.956298761069775 ] } },
    { "type": "Feature", "properties": { "PLACENAME": "Atpūtas vieta \"Piļkas\"", "PLACESUBTY": 2, "REG_CODE": "3", "LVM_DISTRI": "22322", "BLOCKKEY": "305-33" }, "geometry": { "type": "Point", "coordinates": [ 619338.896300068357959, 254353.412999460473657 ] } },
    { "type": "Feature", "properties": { "PLACENAME": "Atpūtas vieta \"Lēlītis\"", "PLACESUBTY": 2, "REG_CODE": "3", "LVM_DISTRI": "22322", "BLOCKKEY": "304-44" }, "geometry": { "type": "Point", "coordinates": [ 609346.825100044952706, 247646.194699684157968 ] } },
    { "type": "Feature", "properties": { "PLACENAME": "Atpūtas vieta pie jūras \"Vasas\"", "PLACESUBTY": 2, "REG_CODE": "4", "LVM_DISTRI": "22423", "BLOCKKEY": "405-269" }, "geometry": { "type": "Point", "coordinates": [ 522660.854500000306871, 375523.383999996818602 ] } },
    { "type": "Feature", "properties": { "PLACENAME": "Zilaiskalns", "PLACESUBTY": 1, "REG_CODE": "4", "LVM_DISTRI": "22425", "BLOCKKEY": "407-392" }, "geometry": { "type": "Point", "coordinates": [ 573632.763600006233901, 379654.524199963547289 ] } },
    { "type": "Feature", "properties": { "PLACENAME": "Purezera taka", "PLACESUBTY": 3, "REG_CODE": "4", "LVM_DISTRI": "22424", "BLOCKKEY": "406-195" }, "geometry": { "type": "Point", "coordinates": [ 555300.267000001505949, 393433.739299991168082 ] } },
    { "type": "Feature", "properties": { "PLACENAME": "Bauņu parks", "PLACESUBTY": 1, "REG_CODE": "4", "LVM_DISTRI": "22422", "BLOCKKEY": "403-344" }, "geometry": { "type": "Point", "coordinates": [ 569308.579700004076585, 400827.810499973595142 ] } },
    { "type": "Feature", "properties": { "PLACENAME": "Atpūtas vieta pie Kaupēna ezera", "PLACESUBTY": 2, "REG_CODE": "4", "LVM_DISTRI": "22428", "BLOCKKEY": "412-29" }, "geometry": { "type": "Point", "coordinates": [ 601078.137400030042045, 344130.923399775288999 ] } },
    { "type": "Feature", "properties": { "PLACENAME": "Planču purva taka", "PLACESUBTY": 3, "REG_CODE": "4", "LVM_DISTRI": "22421", "BLOCKKEY": "402-192" }, "geometry": { "type": "Point", "coordinates": [ 544713.561200000694953, 415720.154899996705353 ] } },
    { "type": "Feature", "properties": { "PLACENAME": "Mednieku atpūtas vieta", "PLACESUBTY": 2, "REG_CODE": "5", "LVM_DISTRI": "22525", "BLOCKKEY": "507-150" }, "geometry": { "type": "Point", "coordinates": [ 584818.920400012750179, 257101.599999928846955 ] } },
    { "type": "Feature", "properties": { "PLACENAME": "Atpūtas vieta pie Abula upes", "PLACESUBTY": 2, "REG_CODE": "1", "LVM_DISTRI": "22123", "BLOCKKEY": "104-144" }, "geometry": { "type": "Point", "coordinates": [ 615919.879700057092123, 366459.447499479167163 ] } },
    { "type": "Feature", "properties": { "PLACENAME": "Atpūtas vieta\"Miera avots\"", "PLACESUBTY": 2, "REG_CODE": "3", "LVM_DISTRI": "22326", "BLOCKKEY": "311-305" }, "geometry": { "type": "Point", "coordinates": [ 701521.791600203607231, 196784.131988399662077 ] } },
    { "type": "Feature", "properties": { "PLACENAME": "Atpūtas vieta Durbes upes krastā", "PLACESUBTY": 2, "REG_CODE": "2", "LVM_DISTRI": "22223", "BLOCKKEY": "203-460" }, "geometry": { "type": "Point", "coordinates": [ 337729.398099783458747, 292468.784796439111233 ] } },
    { "type": "Feature", "properties": { "PLACENAME": "Staldzenes stāvkrasts", "PLACESUBTY": 1, "REG_CODE": "7", "LVM_DISTRI": "22726", "BLOCKKEY": "701-360" }, "geometry": { "type": "Point", "coordinates": [ 356872.831099865899887, 370940.443598150275648 ] } },
    { "type": "Feature", "properties": { "PLACENAME": "Atpūtas vieta \"Upesgrīva\"", "PLACESUBTY": 2, "REG_CODE": "7", "LVM_DISTRI": "22728", "BLOCKKEY": "712-55" }, "geometry": { "type": "Point", "coordinates": [ 441450.47199999820441, 360290.588699989952147 ] } },
    { "type": "Feature", "properties": { "PLACENAME": "Atpūtas vieta \"Ververu loks\"", "PLACESUBTY": 2, "REG_CODE": "3", "LVM_DISTRI": "22326", "BLOCKKEY": "310-272" }, "geometry": { "type": "Point", "coordinates": [ 677463.564000312704593, 197801.43629458360374 ] } },
    { "type": "Feature", "properties": { "PLACENAME": "Piemiņas vieta \"1. pasaules kara kapi\"", "PLACESUBTY": 8, "REG_CODE": "3", "LVM_DISTRI": "22321", "BLOCKKEY": "301-58" }, "geometry": { "type": "Point", "coordinates": [ 600226.883400029037148, 258769.784199806861579 ] } },
    { "type": "Feature", "properties": { "PLACENAME": "Atpūtas vieta pie Puzes ezera", "PLACESUBTY": 2, "REG_CODE": "7", "LVM_DISTRI": "22721", "BLOCKKEY": "705-61" }, "geometry": { "type": "Point", "coordinates": [ 377472.928099926968571, 357479.783999281935394 ] } },
    { "type": "Feature", "properties": { "PLACENAME": "Atpūtas vieta \"Bērziņi\"", "PLACESUBTY": 2, "REG_CODE": "7", "LVM_DISTRI": "22721", "BLOCKKEY": "705-305" }, "geometry": { "type": "Point", "coordinates": [ 385957.72529994713841, 352909.46209953352809 ] } },
    { "type": "Feature", "properties": { "PLACENAME": "Atpūtas vieta \"Lūrmaņu avots\"", "PLACESUBTY": 2, "REG_CODE": "7", "LVM_DISTRI": "22722", "BLOCKKEY": "707-116" }, "geometry": { "type": "Point", "coordinates": [ 421348.607499991485383, 366135.566999948583543 ] } },
    { "type": "Feature", "properties": { "PLACENAME": "Atpūtas vieta \"Ķurbes karjers\"", "PLACESUBTY": 2, "REG_CODE": "7", "LVM_DISTRI": "22722", "BLOCKKEY": "703-404" }, "geometry": { "type": "Point", "coordinates": [ 413124.881799985654652, 371971.949599904939532 ] } },
    { "type": "Feature", "properties": { "PLACENAME": "Atpūtas vieta \"Lubes dzirnavas\"", "PLACESUBTY": 2, "REG_CODE": "7", "LVM_DISTRI": "22722", "BLOCKKEY": "707-88" }, "geometry": { "type": "Point", "coordinates": [ 419311.309799990267493, 367671.975099937058985 ] } },
    { "type": "Feature", "properties": { "PLACENAME": "Atpūtas vieta pie Puteru ezera", "PLACESUBTY": 2, "REG_CODE": "7", "LVM_DISTRI": "22723", "BLOCKKEY": "702-62" }, "geometry": { "type": "Point", "coordinates": [ 392058.702499959559646, 385932.02439965121448 ] } },
    { "type": "Feature", "properties": { "PLACENAME": "Atpūtas vieta \"Ezermala\"", "PLACESUBTY": 2, "REG_CODE": "7", "LVM_DISTRI": "22724", "BLOCKKEY": "706-329" }, "geometry": { "type": "Point", "coordinates": [ 402365.117899975040928, 358601.780099811963737 ] } },
    { "type": "Feature", "properties": { "PLACENAME": "Atpūtas vieta \"Užava\"", "PLACESUBTY": 2, "REG_CODE": "7", "LVM_DISTRI": "22725", "BLOCKKEY": "708-334" }, "geometry": { "type": "Point", "coordinates": [ 344047.517999822564889, 347807.774996994063258 ] } },
    { "type": "Feature", "properties": { "PLACENAME": "Atpūtas vieta \"Dzelzkalna ceļš\"", "PLACESUBTY": 2, "REG_CODE": "7", "LVM_DISTRI": "22726", "BLOCKKEY": "709-18" }, "geometry": { "type": "Point", "coordinates": [ 371150.854399908334017, 354987.942099033854902 ] } },
    { "type": "Feature", "properties": { "PLACENAME": "Atpūtas vieta \"Veģi\"", "PLACESUBTY": 2, "REG_CODE": "7", "LVM_DISTRI": "22727", "BLOCKKEY": "714-205" }, "geometry": { "type": "Point", "coordinates": [ 407530.037399980472401, 326890.137299869209528 ] } },
    { "type": "Feature", "properties": { "PLACENAME": "Atpūtas vieta \"Kaltene\"", "PLACESUBTY": 2, "REG_CODE": "7", "LVM_DISTRI": "22728", "BLOCKKEY": "707-286" }, "geometry": { "type": "Point", "coordinates": [ 426410.550699993385933, 364071.757799964398146 ] } },
    { "type": "Feature", "properties": { "PLACENAME": "Atpūtas vieta pie Kažezera", "PLACESUBTY": 2, "REG_CODE": "7", "LVM_DISTRI": "22729", "BLOCKKEY": "713-76" }, "geometry": { "type": "Point", "coordinates": [ 369139.546199901262298, 338394.216498959809542 ] } },
    { "type": "Feature", "properties": { "PLACENAME": "Atpūtas vieta Ančupānu meža parkā", "PLACESUBTY": 2, "REG_CODE": "8", "LVM_DISTRI": "22825", "BLOCKKEY": "809-39" }, "geometry": { "type": "Point", "coordinates": [ 703901.046499937772751, 270509.68918636534363 ] } },
    { "type": "Feature", "properties": { "PLACENAME": "Atpūtas vieta pie Vadzola ezera", "PLACESUBTY": 2, "REG_CODE": "8", "LVM_DISTRI": "22821", "BLOCKKEY": "801-153" }, "geometry": { "type": "Point", "coordinates": [ 633670.304500110447407, 299118.283898876979947 ] } },
    { "type": "Feature", "properties": { "PLACENAME": "Atpūtas vieta pie Kapu ezera", "PLACESUBTY": 2, "REG_CODE": "8", "LVM_DISTRI": "22822", "BLOCKKEY": "802-685" }, "geometry": { "type": "Point", "coordinates": [ 656309.438300194800831, 298771.933397131040692 ] } },
    { "type": "Feature", "properties": { "PLACENAME": "Atpūtas vieta \"Žīguri\"", "PLACESUBTY": 2, "REG_CODE": "8", "LVM_DISTRI": "22823", "BLOCKKEY": "804-377" }, "geometry": { "type": "Point", "coordinates": [ 720682.756898499443196, 353552.781475687399507 ] } },
    { "type": "Feature", "properties": { "PLACENAME": "Atpūtas vieta \"Pie dīķa\"", "PLACESUBTY": 2, "REG_CODE": "8", "LVM_DISTRI": "22823", "BLOCKKEY": "804-373" }, "geometry": { "type": "Point", "coordinates": [ 717771.573598761926405, 354198.406777534633875 ] } },
    { "type": "Feature", "properties": { "PLACENAME": "Atpūtas vieta \"Līdaces ezers\"", "PLACESUBTY": 2, "REG_CODE": "5", "LVM_DISTRI": "22522", "BLOCKKEY": "503-494" }, "geometry": { "type": "Point", "coordinates": [ 607923.243600041605532, 280936.983199695125222 ] } },
    { "type": "Feature", "properties": { "PLACENAME": "Atpūtas vieta \"Jumpravas sēnīte\"", "PLACESUBTY": 2, "REG_CODE": "5", "LVM_DISTRI": "22521", "BLOCKKEY": "501-425" }, "geometry": { "type": "Point", "coordinates": [ 559385.867000001599081, 287975.326199989765882 ] } },
    { "type": "Feature", "properties": { "PLACENAME": "Atpūtas vieta \"Siliņu ceļš\"", "PLACESUBTY": 2, "REG_CODE": "5", "LVM_DISTRI": "22524", "BLOCKKEY": "506-128" }, "geometry": { "type": "Point", "coordinates": [ 571943.072300005587749, 268728.89889997150749 ] } },
    { "type": "Feature", "properties": { "PLACENAME": "Atpūtas vieta pie Skaistkalnes karsta kritenēm", "PLACESUBTY": 2, "REG_CODE": "5", "LVM_DISTRI": "22523", "BLOCKKEY": "505-396" }, "geometry": { "type": "Point", "coordinates": [ 542678.248300000443123, 249608.052499998360872 ] } },
    { "type": "Feature", "properties": { "PLACENAME": "Skrīveru dendroloģiskais parks", "PLACESUBTY": 1, "REG_CODE": "5", "LVM_DISTRI": "22524", "BLOCKKEY": "502-515" }, "geometry": { "type": "Point", "coordinates": [ 564678.526100003626198, 275300.966599985025823 ] } },
    { "type": "Feature", "properties": { "PLACENAME": "Atpūtas vieta \"Vigvams\"", "PLACESUBTY": 2, "REG_CODE": "3", "LVM_DISTRI": "22321", "BLOCKKEY": "303-238" }, "geometry": { "type": "Point", "coordinates": [ 585063.622300012852065, 240828.415299928747118 ] } },
    { "type": "Feature", "properties": { "PLACENAME": "Atpūtas vieta \"Rindas Lāži\"", "PLACESUBTY": 2, "REG_CODE": "7", "LVM_DISTRI": "22723", "BLOCKKEY": "701-175" }, "geometry": { "type": "Point", "coordinates": [ 372384.005999914195854, 380838.352499053813517 ] } },
    { "type": "Feature", "properties": { "PLACENAME": "Atpūtas vieta \"Smilšu dzirnavas\"", "PLACESUBTY": 2, "REG_CODE": "7", "LVM_DISTRI": "22723", "BLOCKKEY": "704-420" }, "geometry": { "type": "Point", "coordinates": [ 373997.937399918679148, 377498.732299131341279 ] } },
    { "type": "Feature", "properties": { "PLACENAME": "Gaujas dabas taka", "PLACESUBTY": 3, "REG_CODE": "1", "LVM_DISTRI": "22122", "BLOCKKEY": "102-413" }, "geometry": { "type": "Point", "coordinates": [ 602049.412400030414574, 387928.537199749611318 ] } },
    { "type": "Feature", "properties": { "PLACENAME": "Piemiņas vieta Jelgavas 3.kājnieku pulkam", "PLACESUBTY": 8, "REG_CODE": "8", "LVM_DISTRI": "22825", "BLOCKKEY": "809-346" }, "geometry": { "type": "Point", "coordinates": [ 687675.642200261121616, 235218.030492064543068 ] } },
    { "type": "Feature", "properties": { "PLACENAME": "Atpūtas vieta \"Kuņķrags\"", "PLACESUBTY": 2, "REG_CODE": "7", "LVM_DISTRI": "22727", "BLOCKKEY": "711-232" }, "geometry": { "type": "Point", "coordinates": [ 390284.85469995578751, 340042.689199637621641 ] } },
    { "type": "Feature", "properties": { "PLACENAME": "Vasenieku purva taka", "PLACESUBTY": 3, "REG_CODE": "7", "LVM_DISTRI": "22721", "BLOCKKEY": "702-184" }, "geometry": { "type": "Point", "coordinates": [ 388903.745999953709543, 358634.318299598060548 ] } },
    { "type": "Feature", "properties": { "PLACENAME": "Atpūtas vieta \"Rojnieki\"", "PLACESUBTY": 2, "REG_CODE": "7", "LVM_DISTRI": "22723", "BLOCKKEY": "701-85" }, "geometry": { "type": "Point", "coordinates": [ 385391.39299994695466, 386947.536999503150582 ] } },
    { "type": "Feature", "properties": { "PLACENAME": "Atpūtas vieta \"Irbene\"", "PLACESUBTY": 2, "REG_CODE": "7", "LVM_DISTRI": "22723", "BLOCKKEY": "701-148" }, "geometry": { "type": "Point", "coordinates": [ 373859.946299918286968, 382146.486999119631946 ] } },
    { "type": "Feature", "properties": { "PLACENAME": "Atpūtas vieta pie Krūtes pilskalna", "PLACESUBTY": 2, "REG_CODE": "2", "LVM_DISTRI": "22227", "BLOCKKEY": "210-361" }, "geometry": { "type": "Point", "coordinates": [ 338545.091899767401628, 246026.337796736508608 ] } },
    { "type": "Feature", "properties": { "PLACENAME": "Atpūtas vieta pie jūras", "PLACESUBTY": 2, "REG_CODE": "2", "LVM_DISTRI": "22231", "BLOCKKEY": "213-50" }, "geometry": { "type": "Point", "coordinates": [ 312924.543899738055188, 237058.723592196591198 ] } },
    { "type": "Feature", "properties": { "PLACENAME": "Atpūtas vieta \"Kāpas malā\"", "PLACESUBTY": 2, "REG_CODE": "2", "LVM_DISTRI": "22231", "BLOCKKEY": "213-60" }, "geometry": { "type": "Point", "coordinates": [ 312908.147399737325031, 236242.076192201115191 ] } },
    { "type": "Feature", "properties": { "PLACENAME": "Atpūtas vieta pie Pinku ezera", "PLACESUBTY": 2, "REG_CODE": "2", "LVM_DISTRI": "22221", "BLOCKKEY": "201-332" }, "geometry": { "type": "Point", "coordinates": [ 359923.442099867970683, 319521.830498473718762 ] } },
    { "type": "Feature", "properties": { "PLACENAME": "Atpūtas vieta pie Tebras upes", "PLACESUBTY": 2, "REG_CODE": "2", "LVM_DISTRI": "22223", "BLOCKKEY": "204-84" }, "geometry": { "type": "Point", "coordinates": [ 342443.370499801530968, 301162.300296982750297 ] } },
    { "type": "Feature", "properties": { "PLACENAME": "Atpūtas vieta \"Rīteru karjers\"", "PLACESUBTY": 2, "REG_CODE": "5", "LVM_DISTRI": "22522", "BLOCKKEY": "503-368" }, "geometry": { "type": "Point", "coordinates": [ 591420.901700018672273, 276114.098799885250628 ] } },
    { "type": "Feature", "properties": { "PLACENAME": "Atpūtas vieta \"Rīteru karjers\"", "PLACESUBTY": 2, "REG_CODE": "5", "LVM_DISTRI": "22522", "BLOCKKEY": "503-368" }, "geometry": { "type": "Point", "coordinates": [ 591671.446300018578768, 275897.156599884852767 ] } },
    { "type": "Feature", "properties": { "PLACENAME": "Atpūtas vieta \"Rīteru karjers\"", "PLACESUBTY": 2, "REG_CODE": "5", "LVM_DISTRI": "22522", "BLOCKKEY": "503-368" }, "geometry": { "type": "Point", "coordinates": [ 591433.871100018615834, 275771.589599885977805 ] } },
    { "type": "Feature", "properties": { "PLACENAME": "Atpūtas vieta \"Rīteru karjers\"", "PLACESUBTY": 2, "REG_CODE": "5", "LVM_DISTRI": "22522", "BLOCKKEY": "503-368" }, "geometry": { "type": "Point", "coordinates": [ 591511.071600018884055, 276032.900299886241555 ] } },
    { "type": "Feature", "properties": { "PLACENAME": "Atpūtas vieta pie Pīļezera", "PLACESUBTY": 2, "REG_CODE": "4", "LVM_DISTRI": "22423", "BLOCKKEY": "408-527" }, "geometry": { "type": "Point", "coordinates": [ 553893.31640000117477, 349523.571899995207787 ] } },
    { "type": "Feature", "properties": { "PLACENAME": "Atpūtas vieta pie Dūņezera", "PLACESUBTY": 2, "REG_CODE": "7", "LVM_DISTRI": "22721", "BLOCKKEY": "710-98" }, "geometry": { "type": "Point", "coordinates": [ 379645.253999931970611, 352885.120399357751012 ] } },
    { "type": "Feature", "properties": { "PLACENAME": "Atpūtas vieta pie Pāvilostas", "PLACESUBTY": 2, "REG_CODE": "2", "LVM_DISTRI": "22223", "BLOCKKEY": "203-75" }, "geometry": { "type": "Point", "coordinates": [ 327684.294199779513292, 307681.953894797712564 ] } },
    { "type": "Feature", "properties": { "PLACENAME": "Atpūtas vieta pie Rindas upes", "PLACESUBTY": 2, "REG_CODE": "7", "LVM_DISTRI": "22723", "BLOCKKEY": "701-290" }, "geometry": { "type": "Point", "coordinates": [ 373285.803499916801229, 376835.495599100366235 ] } },
    { "type": "Feature", "properties": { "PLACENAME": "Atpūtas vieta \"Rākova\"", "PLACESUBTY": 2, "REG_CODE": "8", "LVM_DISTRI": "22823", "BLOCKKEY": "804-94" }, "geometry": { "type": "Point", "coordinates": [ 721405.093298364663497, 360582.564874986186624 ] } },
    { "type": "Feature", "properties": { "PLACENAME": "Atpūtas vieta \"Tadenava\"", "PLACESUBTY": 2, "REG_CODE": "3", "LVM_DISTRI": "22324", "BLOCKKEY": "307-327" }, "geometry": { "type": "Point", "coordinates": [ 631311.730800107470714, 227696.961299074813724 ] } },
    { "type": "Feature", "properties": { "PLACENAME": "Atpūtas vieta pie Lazdaga ezera", "PLACESUBTY": 2, "REG_CODE": "8", "LVM_DISTRI": "22824", "BLOCKKEY": "805-141" }, "geometry": { "type": "Point", "coordinates": [ 680048.252900178660639, 327405.428193066269159 ] } },
    { "type": "Feature", "properties": { "PLACENAME": "Atpūtas vieta pie Kaļņa ezera", "PLACESUBTY": 2, "REG_CODE": "8", "LVM_DISTRI": "22824", "BLOCKKEY": "805-108" }, "geometry": { "type": "Point", "coordinates": [ 681149.449600166757591, 331449.066592769697309 ] } },
    { "type": "Feature", "properties": { "PLACENAME": "Atpūtas vieta \"Ķēķis\"", "PLACESUBTY": 2, "REG_CODE": "8", "LVM_DISTRI": "22821", "BLOCKKEY": "808-208" }, "geometry": { "type": "Point", "coordinates": [ 676832.302000238443725, 282848.002494108863175 ] } },
    { "type": "Feature", "properties": { "PLACENAME": "Atpūtas vieta \"Restorāns\"", "PLACESUBTY": 2, "REG_CODE": "8", "LVM_DISTRI": "22821", "BLOCKKEY": "808-232" }, "geometry": { "type": "Point", "coordinates": [ 675465.789700240944512, 281198.068694388493896 ] } },
    { "type": "Feature", "properties": { "PLACENAME": "Atpūtas vieta \"Janopoles dīķis\"", "PLACESUBTY": 2, "REG_CODE": "8", "LVM_DISTRI": "22825", "BLOCKKEY": "809-77" }, "geometry": { "type": "Point", "coordinates": [ 709550.134499794919975, 258889.834884162992239 ] } },
    { "type": "Feature", "properties": { "PLACENAME": "Atpūtas vieta pie Šostu ezera", "PLACESUBTY": 2, "REG_CODE": "8", "LVM_DISTRI": "22825", "BLOCKKEY": "809-88" }, "geometry": { "type": "Point", "coordinates": [ 724547.499798957258463, 254411.013176146894693 ] } },
    { "type": "Feature", "properties": { "PLACENAME": "Atpūtas vieta pie Vorcu ezera", "PLACESUBTY": 2, "REG_CODE": "8", "LVM_DISTRI": "22827", "BLOCKKEY": "811-259" }, "geometry": { "type": "Point", "coordinates": [ 731322.908298313384876, 253763.331571503542364 ] } },
    { "type": "Feature", "properties": { "PLACENAME": "Atpūtas vieta pie Kovšu ezera (Kaušezers)", "PLACESUBTY": 2, "REG_CODE": "8", "LVM_DISTRI": "22827", "BLOCKKEY": "812-191" }, "geometry": { "type": "Point", "coordinates": [ 749854.976195486262441, 238998.097155529074371 ] } },
    { "type": "Feature", "properties": { "PLACENAME": "Atpūtas vieta pie Suķiera ezera", "PLACESUBTY": 2, "REG_CODE": "1", "LVM_DISTRI": "22121", "BLOCKKEY": "101-253" }, "geometry": { "type": "Point", "coordinates": [ 610230.646100043551996, 413673.062599590979517 ] } },
    { "type": "Feature", "properties": { "PLACENAME": "Atpūtas vieta pie Valda ezera", "PLACESUBTY": 2, "REG_CODE": "1", "LVM_DISTRI": "22121", "BLOCKKEY": "101-184" }, "geometry": { "type": "Point", "coordinates": [ 605570.611900035873987, 402206.098599687218666 ] } },
    { "type": "Feature", "properties": { "PLACENAME": "Atpūtas vieta pie Gaujas", "PLACESUBTY": 2, "REG_CODE": "1", "LVM_DISTRI": "22122", "BLOCKKEY": "102-209" }, "geometry": { "type": "Point", "coordinates": [ 617932.450500060571358, 393417.357599399983883 ] } },
    { "type": "Feature", "properties": { "PLACENAME": "Atpūtas vieta pie Dziļā ezera", "PLACESUBTY": 2, "REG_CODE": "1", "LVM_DISTRI": "22122", "BLOCKKEY": "103-174" }, "geometry": { "type": "Point", "coordinates": [ 623978.841300075640902, 393656.892899193800986 ] } },
    { "type": "Feature", "properties": { "PLACENAME": "Atpūtas vieta \"Aiz Oliņām\" pie Gaujas", "PLACESUBTY": 2, "REG_CODE": "1", "LVM_DISTRI": "22122", "BLOCKKEY": "102-340" }, "geometry": { "type": "Point", "coordinates": [ 612527.002200048882514, 388074.615699551999569 ] } },
    { "type": "Feature", "properties": { "PLACENAME": "Atpūtas vieta pie Gaujas tilta \"Strenči\"", "PLACESUBTY": 2, "REG_CODE": "1", "LVM_DISTRI": "22122", "BLOCKKEY": "102-437" }, "geometry": { "type": "Point", "coordinates": [ 601563.35470002994407, 387492.720299757085741 ] } },
    { "type": "Feature", "properties": { "PLACENAME": "Atpūtas vieta pie Lielā Svētiņu ezera", "PLACESUBTY": 2, "REG_CODE": "8", "LVM_DISTRI": "22825", "BLOCKKEY": "808-61" }, "geometry": { "type": "Point", "coordinates": [ 692564.449600108433515, 295597.498190021142364 ] } },
    { "type": "Feature", "properties": { "PLACENAME": "Atpūtas vieta \"Iežuleja\"", "PLACESUBTY": 2, "REG_CODE": "1", "LVM_DISTRI": "22122", "BLOCKKEY": "103-237" }, "geometry": { "type": "Point", "coordinates": [ 618125.53500006115064, 390353.944699397310615 ] } },
    { "type": "Feature", "properties": { "PLACENAME": "Atpūtas vieta pie Cepurītes ezera", "PLACESUBTY": 2, "REG_CODE": "1", "LVM_DISTRI": "22122", "BLOCKKEY": "103-234" }, "geometry": { "type": "Point", "coordinates": [ 630888.206900093937293, 392278.55529888626188 ] } },
    { "type": "Feature", "properties": { "PLACENAME": "Atpūtas vieta pie Darvas ezera", "PLACESUBTY": 2, "REG_CODE": "1", "LVM_DISTRI": "22122", "BLOCKKEY": "103-489" }, "geometry": { "type": "Point", "coordinates": [ 633272.805600101361051, 385863.565698769874871 ] } },
    { "type": "Feature", "properties": { "PLACENAME": "Atpūtas vieta pie Salaiņa ezera", "PLACESUBTY": 2, "REG_CODE": "1", "LVM_DISTRI": "22122", "BLOCKKEY": "103-568" }, "geometry": { "type": "Point", "coordinates": [ 629194.716100089950487, 383683.729598978534341 ] } },
    { "type": "Feature", "properties": { "PLACENAME": "Atpūtas vietas pie Dziļā ezera", "PLACESUBTY": 2, "REG_CODE": "1", "LVM_DISTRI": "22122", "BLOCKKEY": "103-174" }, "geometry": { "type": "Point", "coordinates": [ 624165.117600076133385, 393621.553499187342823 ] } },
    { "type": "Feature", "properties": { "PLACENAME": "Cērtenes pilskalns", "PLACESUBTY": 1, "REG_CODE": "1", "LVM_DISTRI": "22123", "BLOCKKEY": "104-160" }, "geometry": { "type": "Point", "coordinates": [ 614266.088600053451955, 364600.211799520067871 ] } },
    { "type": "Feature", "properties": { "PLACENAME": "Atpūtas vieta pie Kaļņa ezera", "PLACESUBTY": 2, "REG_CODE": "1", "LVM_DISTRI": "22128", "BLOCKKEY": "111-633" }, "geometry": { "type": "Point", "coordinates": [ 680259.328900171560235, 332329.458692971616983 ] } },
    { "type": "Feature", "properties": { "PLACENAME": "Atpūtas vieta pie Spiciera ezera", "PLACESUBTY": 2, "REG_CODE": "1", "LVM_DISTRI": "22123", "BLOCKKEY": "104-148" }, "geometry": { "type": "Point", "coordinates": [ 617840.868100060615689, 366207.521899424493313 ] } },
    { "type": "Feature", "properties": { "PLACENAME": "Atpūtas vieta \"Aizupes\"", "PLACESUBTY": 2, "REG_CODE": "7", "LVM_DISTRI": "22721", "BLOCKKEY": "705-333" }, "geometry": { "type": "Point", "coordinates": [ 391768.054299958632328, 352007.300799659453332 ] } },
    { "type": "Feature", "properties": { "PLACENAME": "Atpūtas vieta pie Pāvilostas", "PLACESUBTY": 2, "REG_CODE": "2", "LVM_DISTRI": "22223", "BLOCKKEY": "203-73" }, "geometry": { "type": "Point", "coordinates": [ 329771.375799778848886, 308148.018795162439346 ] } },
    { "type": "Feature", "properties": { "PLACENAME": "Ūdrkalna skatu tornis", "PLACESUBTY": 1, "REG_CODE": "7", "LVM_DISTRI": "22727", "BLOCKKEY": "711-215" }, "geometry": { "type": "Point", "coordinates": [ 392240.671499959542416, 342262.585199672728777 ] } },
    { "type": "Feature", "properties": { "PLACENAME": "Kapličas vārti", "PLACESUBTY": 1, "REG_CODE": "1", "LVM_DISTRI": "22124", "BLOCKKEY": "105-342" }, "geometry": { "type": "Point", "coordinates": [ 643931.508700135746039, 376686.67689807433635 ] } },
    { "type": "Feature", "properties": { "PLACENAME": "Inčukalna velnala", "PLACESUBTY": 1, "REG_CODE": "4", "LVM_DISTRI": "22426", "BLOCKKEY": "408-401" }, "geometry": { "type": "Point", "coordinates": [ 538692.135099999839, 331695.315199997276068 ] } },
    { "type": "Feature", "properties": { "PLACENAME": "Atpūtas vieta pie Kovšu ezera (Kaušezers)", "PLACESUBTY": 2, "REG_CODE": "8", "LVM_DISTRI": "22827", "BLOCKKEY": "812-191" }, "geometry": { "type": "Point", "coordinates": [ 750266.298295391490683, 238985.293955085799098 ] } },
    { "type": "Feature", "properties": { "PLACENAME": "Atpūtas vieta pie Kovšu ezera (Kaušezers)", "PLACESUBTY": 2, "REG_CODE": "8", "LVM_DISTRI": "22827", "BLOCKKEY": "812-191" }, "geometry": { "type": "Point", "coordinates": [ 749384.54769558517728, 239350.463356012478471 ] } },
    { "type": "Feature", "properties": { "PLACENAME": "Atpūtas vieta pie Baltezera", "PLACESUBTY": 2, "REG_CODE": "5", "LVM_DISTRI": "22528", "BLOCKKEY": "510-106" }, "geometry": { "type": "Point", "coordinates": [ 563490.226400002953596, 262029.93939998652786 ] } },
    { "type": "Feature", "properties": { "PLACENAME": "Atpūtas vieta \"Užavas bāka\"", "PLACESUBTY": 2, "REG_CODE": "7", "LVM_DISTRI": "22725", "BLOCKKEY": "708-343" }, "geometry": { "type": "Point", "coordinates": [ 343912.910899820271879, 343692.070596992969513 ] } },
    { "type": "Feature", "properties": { "PLACENAME": "Atpūtas vieta pie \"Bekām\"", "PLACESUBTY": 2, "REG_CODE": "1", "LVM_DISTRI": "22121", "BLOCKKEY": "103-64" }, "geometry": { "type": "Point", "coordinates": [ 625300.281900078291073, 397637.377899137325585 ] } },
    { "type": "Feature", "properties": { "PLACENAME": "Atpūtas vieta pie Klāņu ezera", "PLACESUBTY": 2, "REG_CODE": "7", "LVM_DISTRI": "22726", "BLOCKKEY": "701-376" }, "geometry": { "type": "Point", "coordinates": [ 366386.165399896155577, 371922.216698772273958 ] } },
    { "type": "Feature", "properties": { "PLACENAME": "Atpūtas vieta \"Pie eglēm\"", "PLACESUBTY": 2, "REG_CODE": "3", "LVM_DISTRI": "22321", "BLOCKKEY": "301-209" }, "geometry": { "type": "Point", "coordinates": [ 601610.644000031636097, 251910.98799979314208 ] } },
    { "type": "Feature", "properties": { "PLACENAME": "Atpūtas vieta \"Butkas\"", "PLACESUBTY": 2, "REG_CODE": "3", "LVM_DISTRI": "22324", "BLOCKKEY": "308-84" }, "geometry": { "type": "Point", "coordinates": [ 642192.95980015269015, 220878.396798522211611 ] } },
    { "type": "Feature", "properties": { "PLACENAME": "Atpūtas vieta \"Rīteru karjers\"", "PLACESUBTY": 2, "REG_CODE": "5", "LVM_DISTRI": "22522", "BLOCKKEY": "503-368" }, "geometry": { "type": "Point", "coordinates": [ 591119.786600018269382, 275990.626399887725711 ] } },
    { "type": "Feature", "properties": { "PLACENAME": "Atpūtas vieta \"Piebalgas\"", "PLACESUBTY": 2, "REG_CODE": "5", "LVM_DISTRI": "22526", "BLOCKKEY": "508-174" }, "geometry": { "type": "Point", "coordinates": [ 526464.843100000172853, 281918.497999997809529 ] } },
    { "type": "Feature", "properties": { "PLACENAME": "Atpūtas vieta \"Garākalna smilšu krupja atradne\"", "PLACESUBTY": 2, "REG_CODE": "6", "LVM_DISTRI": "22626", "BLOCKKEY": "607-76" }, "geometry": { "type": "Point", "coordinates": [ 446576.14309999870602, 256318.483299995772541 ] } },
    { "type": "Feature", "properties": { "PLACENAME": "Jūrkalnes stāvkrasts", "PLACESUBTY": 1, "REG_CODE": "7", "LVM_DISTRI": "22725", "BLOCKKEY": "708-233" }, "geometry": { "type": "Point", "coordinates": [ 340810.863599803880788, 321211.66289671137929 ] } },
    { "type": "Feature", "properties": { "PLACENAME": "Ukru gārša", "PLACESUBTY": 3, "REG_CODE": "6", "LVM_DISTRI": "22626", "BLOCKKEY": "607-143" }, "geometry": { "type": "Point", "coordinates": [ 451174.656599999580067, 248583.375599997118115 ] } },
    { "type": "Feature", "properties": { "PLACENAME": "Atpūtas vieta \"Dzērves kakls\"", "PLACESUBTY": 2, "REG_CODE": "8", "LVM_DISTRI": "22822", "BLOCKKEY": "802-718" }, "geometry": { "type": "Point", "coordinates": [ 663700.669700213475153, 307266.954096176661551 ] } },
    { "type": "Feature", "properties": { "PLACENAME": "Iršu parka taka", "PLACESUBTY": 3, "REG_CODE": "6", "LVM_DISTRI": "22625", "BLOCKKEY": "607-29" }, "geometry": { "type": "Point", "coordinates": [ 443081.695299998100381, 260431.31719999294728 ] } },
    { "type": "Feature", "properties": { "PLACENAME": "Atpūtas vieta pie Gaujas", "PLACESUBTY": 2, "REG_CODE": "1", "LVM_DISTRI": "22122", "BLOCKKEY": "102-444" }, "geometry": { "type": "Point", "coordinates": [ 603344.534400032833219, 388055.678799729794264 ] } },
    { "type": "Feature", "properties": { "PLACENAME": "Strenču pilsētas meža taka", "PLACESUBTY": 3, "REG_CODE": "1", "LVM_DISTRI": "22122", "BLOCKKEY": "102-413" }, "geometry": { "type": "Point", "coordinates": [ 602255.558100030990317, 388642.680599748156965 ] } },
    { "type": "Feature", "properties": { "PLACENAME": "Atpūtas vieta pie Niedrāja ezera \"Dienvidu gals\"", "PLACESUBTY": 2, "REG_CODE": "1", "LVM_DISTRI": "22123", "BLOCKKEY": "104-128" }, "geometry": { "type": "Point", "coordinates": [ 618568.964500062400475, 367113.357599402777851 ] } },
    { "type": "Feature", "properties": { "PLACENAME": "Dauģēnu klintis", "PLACESUBTY": 1, "REG_CODE": "4", "LVM_DISTRI": "22422", "BLOCKKEY": "403-281" }, "geometry": { "type": "Point", "coordinates": [ 560133.323700001696125, 417373.021799987182021 ] } },
    { "type": "Feature", "properties": { "PLACENAME": "Jānīša dabas taka", "PLACESUBTY": 3, "REG_CODE": "6", "LVM_DISTRI": "22621", "BLOCKKEY": "601-265" }, "geometry": { "type": "Point", "coordinates": [ 441814.057599998021033, 330383.801099991425872 ] } },
    { "type": "Feature", "properties": { "PLACENAME": "Lāčupes taka līdz jūrai", "PLACESUBTY": 3, "REG_CODE": "6", "LVM_DISTRI": "22621", "BLOCKKEY": "601-525" }, "geometry": { "type": "Point", "coordinates": [ 461021.330799999414012, 322573.197399998083711 ] } },
    { "type": "Feature", "properties": { "PLACENAME": "Atpūtas vieta \"Vaskara ezers\"", "PLACESUBTY": 2, "REG_CODE": "6", "LVM_DISTRI": "22621", "BLOCKKEY": "601-171" }, "geometry": { "type": "Point", "coordinates": [ 441888.952099998423364, 335403.492499991320074 ] } },
    { "type": "Feature", "properties": { "PLACENAME": "Engures taka līdz jūrai", "PLACESUBTY": 3, "REG_CODE": "6", "LVM_DISTRI": "22621", "BLOCKKEY": "601-62" }, "geometry": { "type": "Point", "coordinates": [ 453005.533699999039527, 336780.830399996601045 ] } },
    { "type": "Feature", "properties": { "PLACENAME": "Jūriņas taka", "PLACESUBTY": 3, "REG_CODE": "6", "LVM_DISTRI": "22621", "BLOCKKEY": "601-62" }, "geometry": { "type": "Point", "coordinates": [ 453321.049999999231659, 336295.58359999768436 ] } },
    { "type": "Feature", "properties": { "PLACENAME": "Atpūtas vieta \"Engures ezera dabas parks\"", "PLACESUBTY": 2, "REG_CODE": "6", "LVM_DISTRI": "22621", "BLOCKKEY": "601-19" }, "geometry": { "type": "Point", "coordinates": [ 447946.691899998870213, 346377.891499994322658 ] } },
    { "type": "Feature", "properties": { "PLACENAME": "Atpūtas vieta \"Rīteru karjers\"", "PLACESUBTY": 2, "REG_CODE": "5", "LVM_DISTRI": "22522", "BLOCKKEY": "503-368" }, "geometry": { "type": "Point", "coordinates": [ 591197.688700017984957, 276141.492199888452888 ] } },
    { "type": "Feature", "properties": { "PLACENAME": "Atpūtas vieta Iecavas piepilsētas mežos", "PLACESUBTY": 2, "REG_CODE": "5", "LVM_DISTRI": "22527", "BLOCKKEY": "508-403" }, "geometry": { "type": "Point", "coordinates": [ 513216.041000000142958, 271540.278 ] } },
    { "type": "Feature", "properties": { "PLACENAME": "Ančupānu skatu tornis", "PLACESUBTY": 1, "REG_CODE": "8", "LVM_DISTRI": "22825", "BLOCKKEY": "809-39" }, "geometry": { "type": "Point", "coordinates": [ 703823.219699938432314, 270947.041286390274763 ] } },
    { "type": "Feature", "properties": { "PLACENAME": "LVM Kalsnavas arborētums", "PLACESUBTY": 7, "REG_CODE": "8", "LVM_DISTRI": "13301", "BLOCKKEY": "801-361" }, "geometry": { "type": "Point", "coordinates": [ 619317.801900067715906, 283901.442299439571798 ] } },
    { "type": "Feature", "properties": { "PLACENAME": "Skrīveru svešzemju koku stādījumi", "PLACESUBTY": 1, "REG_CODE": "5", "LVM_DISTRI": "22524", "BLOCKKEY": "502-511" }, "geometry": { "type": "Point", "coordinates": [ 564635.444200002937578, 275367.84999998472631 ] } },
    { "type": "Feature", "properties": { "PLACENAME": "Atpūtas vieta Daugavas krastā", "PLACESUBTY": 2, "REG_CODE": "5", "LVM_DISTRI": "22523", "BLOCKKEY": "505-438" }, "geometry": { "type": "Point", "coordinates": [ 556219.702800001716241, 276871.501299993135035 ] } },
    { "type": "Feature", "properties": { "PLACENAME": "Atpūtas vieta pie Mierkalna karjera dīķa", "PLACESUBTY": 2, "REG_CODE": "1", "LVM_DISTRI": "22121", "BLOCKKEY": "101-91" }, "geometry": { "type": "Point", "coordinates": [ 597122.342300023650751, 410115.207499807700515 ] } },
    { "type": "Feature", "properties": { "PLACENAME": "Atpūtas vieta \"Aklais ezers\".", "PLACESUBTY": 2, "REG_CODE": "5", "LVM_DISTRI": "22523", "BLOCKKEY": "505-203" }, "geometry": { "type": "Point", "coordinates": [ 555594.619400001596659, 269362.157899992540479 ] } },
    { "type": "Feature", "properties": { "PLACENAME": "MTB trase \"Mugurkalni\"", "PLACESUBTY": 4, "REG_CODE": "5", "LVM_DISTRI": "22521", "BLOCKKEY": "501-373" }, "geometry": { "type": "Point", "coordinates": [ 546456.267100000288337, 288680.160099996253848 ] } },
    { "type": "Feature", "properties": { "PLACENAME": "Atpūtaas vieta \"Zārdava\"", "PLACESUBTY": 2, "REG_CODE": "7", "LVM_DISTRI": "22729", "BLOCKKEY": "713-384" }, "geometry": { "type": "Point", "coordinates": [ 381854.096799937426113, 330970.631899440661073 ] } },
    { "type": "Feature", "properties": { "PLACENAME": "LVM Kaņiera ezers", "PLACESUBTY": 7, "REG_CODE": null, "LVM_DISTRI": null, "BLOCKKEY": "601" }, "geometry": { "type": "Point", "coordinates": [ 468889.36639999965, 317689.582299998030066 ] } },
    { "type": "Feature", "properties": { "PLACENAME": "Atpūtas vieta pie Gaujas", "PLACESUBTY": 2, "REG_CODE": "1", "LVM_DISTRI": "22124", "BLOCKKEY": "105-363" }, "geometry": { "type": "Point", "coordinates": [ 643685.965400135377422, 374922.19859809614718 ] } },
    { "type": "Feature", "properties": { "PLACENAME": "Smiltiņkalns", "PLACESUBTY": 1, "REG_CODE": "6", "LVM_DISTRI": "22622", "BLOCKKEY": "603-205" }, "geometry": { "type": "Point", "coordinates": [ 423771.849499992269557, 301932.760399959050119 ] } },
    { "type": "Feature", "properties": { "PLACENAME": "Atpūtas vieta pie Lejas ezera", "PLACESUBTY": 2, "REG_CODE": "6", "LVM_DISTRI": "22623", "BLOCKKEY": "604-57" }, "geometry": { "type": "Point", "coordinates": [ 527000.044599999673665, 293515.415599999018013 ] } },
    { "type": "Feature", "properties": { "PLACENAME": "Atpūtas vieta pie Pakuļu ezera", "PLACESUBTY": 2, "REG_CODE": "6", "LVM_DISTRI": "22623", "BLOCKKEY": "604-140" }, "geometry": { "type": "Point", "coordinates": [ 531885.267500000190921, 288255.77549999859184 ] } },
    { "type": "Feature", "properties": { "PLACENAME": "Atpūtas vieta pie Kausu ezera", "PLACESUBTY": 2, "REG_CODE": "6", "LVM_DISTRI": "22623", "BLOCKKEY": "604-126" }, "geometry": { "type": "Point", "coordinates": [ 531300.395700000342913, 289676.808900000527501 ] } },
    { "type": "Feature", "properties": { "PLACENAME": "Atpūtas vieta \"Pūres meža taka\"", "PLACESUBTY": 2, "REG_CODE": "6", "LVM_DISTRI": "22622", "BLOCKKEY": "603-26" }, "geometry": { "type": "Point", "coordinates": [ 435482.540499996975996, 320766.736999983899295 ] } },
    { "type": "Feature", "properties": { "PLACENAME": "Atpūtas vieta pie Gauju ceļa", "PLACESUBTY": 2, "REG_CODE": "6", "LVM_DISTRI": "22628", "BLOCKKEY": "610-144" }, "geometry": { "type": "Point", "coordinates": [ 501127.453300000168383, 280642.029099999927 ] } },
    { "type": "Feature", "properties": { "PLACENAME": "Atpūtas vieta \"Ventmala\"", "PLACESUBTY": 2, "REG_CODE": "2", "LVM_DISTRI": "22229", "BLOCKKEY": "211-230" }, "geometry": { "type": "Point", "coordinates": [ 383321.956699938862585, 261038.359299523755908 ] } },
    { "type": "Feature", "properties": { "PLACENAME": "Atpūtas vieta \"Deguma ceļš\"", "PLACESUBTY": 2, "REG_CODE": "5", "LVM_DISTRI": "22525", "BLOCKKEY": "507-63" }, "geometry": { "type": "Point", "coordinates": [ 585688.854300013044849, 261010.196499922312796 ] } },
    { "type": "Feature", "properties": { "PLACENAME": "Atpūtas vieta \"Stirnu ceļš\"", "PLACESUBTY": 2, "REG_CODE": "5", "LVM_DISTRI": "22525", "BLOCKKEY": "507-280" }, "geometry": { "type": "Point", "coordinates": [ 578615.402200009091757, 252892.099899954162538 ] } },
    { "type": "Feature", "properties": { "PLACENAME": "Atpūtas vieta \"Stukmaņu līnija\"", "PLACESUBTY": 2, "REG_CODE": "5", "LVM_DISTRI": "22522", "BLOCKKEY": "503-286" }, "geometry": { "type": "Point", "coordinates": [ 596139.988700023270212, 286011.509999844245613 ] } },
    { "type": "Feature", "properties": { "PLACENAME": "Krievu kalni", "PLACESUBTY": 1, "REG_CODE": "6", "LVM_DISTRI": "22625", "BLOCKKEY": "606-96" }, "geometry": { "type": "Point", "coordinates": [ 439525.807199997361749, 273190.15359998960048 ] } },
    { "type": "Feature", "properties": { "PLACENAME": "Pūrciema baltā kāpa", "PLACESUBTY": 3, "REG_CODE": "7", "LVM_DISTRI": "22722", "BLOCKKEY": "703-219" }, "geometry": { "type": "Point", "coordinates": [ 417943.306199990096502, 382432.145399930886924 ] } },
    { "type": "Feature", "properties": { "PLACENAME": "Atpūtas vieta \"Melnsils - Ģipka pludmale\"", "PLACESUBTY": 2, "REG_CODE": "7", "LVM_DISTRI": "22722", "BLOCKKEY": "703-150" }, "geometry": { "type": "Point", "coordinates": [ 415934.270899988012388, 387846.306499920785427 ] } },
    { "type": "Feature", "properties": { "PLACENAME": "Dundagas pils parks", "PLACESUBTY": 1, "REG_CODE": "7", "LVM_DISTRI": "22724", "BLOCKKEY": "706-33" }, "geometry": { "type": "Point", "coordinates": [ 401601.760299974353984, 375236.539399801753461 ] } },
    { "type": "Feature", "properties": { "PLACENAME": "Piemiņas vieta \"1. pasaules kara vācu brāļu kapi\"", "PLACESUBTY": 8, "REG_CODE": "3", "LVM_DISTRI": "22321", "BLOCKKEY": "301-47" }, "geometry": { "type": "Point", "coordinates": [ 600480.883900029351935, 261113.997299805283546 ] } },
    { "type": "Feature", "properties": { "PLACENAME": "Atpūtas vieta pie Motrīnes ezera", "PLACESUBTY": 2, "REG_CODE": "8", "LVM_DISTRI": "22826", "BLOCKKEY": "807-204" }, "geometry": { "type": "Point", "coordinates": [ 719595.975898947101086, 308739.36377768125385 ] } },
    { "type": "Feature", "properties": { "PLACENAME": "Atpūtas vieta pie Gaujas tilta \"Strenči\"", "PLACESUBTY": 2, "REG_CODE": "1", "LVM_DISTRI": "22122", "BLOCKKEY": "102-437" }, "geometry": { "type": "Point", "coordinates": [ 601328.357900029863231, 387557.221899760887027 ] } },
    { "type": "Feature", "properties": { "PLACENAME": "Atpūtas vieta pie Gaujas blakus A3 stāvlaukumam", "PLACESUBTY": 2, "REG_CODE": "1", "LVM_DISTRI": "22122", "BLOCKKEY": "102-350" }, "geometry": { "type": "Point", "coordinates": [ 603965.200700033456087, 388567.932299719192088 ] } },
    { "type": "Feature", "properties": { "PLACENAME": "Boju pils parks", "PLACESUBTY": 1, "REG_CODE": "2", "LVM_DISTRI": "22224", "BLOCKKEY": "204-420" }, "geometry": { "type": "Point", "coordinates": [ 356448.562899850541726, 284069.093098307959735 ] } },
    { "type": "Feature", "properties": { "PLACENAME": "Atpūtas vieta\"Līdaces ezers\"", "PLACESUBTY": 2, "REG_CODE": "5", "LVM_DISTRI": "22522", "BLOCKKEY": "503-497" }, "geometry": { "type": "Point", "coordinates": [ 607837.612600041320547, 280725.807999696582556 ] } },
    { "type": "Feature", "properties": { "PLACENAME": "Atpūtas vieta \"Rīteru karjers\"", "PLACESUBTY": 2, "REG_CODE": "5", "LVM_DISTRI": "22522", "BLOCKKEY": "503-368" }, "geometry": { "type": "Point", "coordinates": [ 591281.194500018609688, 275857.54809988848865 ] } },
    { "type": "Feature", "properties": { "PLACENAME": "Atpūtas vieta  \"Zalves\"", "PLACESUBTY": 2, "REG_CODE": "5", "LVM_DISTRI": "22525", "BLOCKKEY": "511-119" }, "geometry": { "type": "Point", "coordinates": [ 577483.642900008242577, 245481.690999958664179 ] } },
    { "type": "Feature", "properties": { "PLACENAME": "Atpūtas vieta pie Plisūna (Plusona) ezera", "PLACESUBTY": 2, "REG_CODE": "8", "LVM_DISTRI": "22827", "BLOCKKEY": "812-252" }, "geometry": { "type": "Point", "coordinates": [ 748678.196795790572651, 236759.177456894889474 ] } },
    { "type": "Feature", "properties": { "PLACENAME": "Atpūtas vieta pie Spicu tilta", "PLACESUBTY": 2, "REG_CODE": "1", "LVM_DISTRI": "22121", "BLOCKKEY": "103-163" }, "geometry": { "type": "Point", "coordinates": [ 619106.04970006342046, 394007.052899365313351 ] } },
    { "type": "Feature", "properties": { "PLACENAME": "Kalsnavas arborētuma skatu tornis", "PLACESUBTY": 7, "REG_CODE": "8", "LVM_DISTRI": "22821", "BLOCKKEY": "801-361" }, "geometry": { "type": "Point", "coordinates": [ 619146.379800066933967, 284163.209299446083605 ] } },
    { "type": "Feature", "properties": { "PLACENAME": "Riežupes dabas parks", "PLACESUBTY": 2, "REG_CODE": "2", "LVM_DISTRI": "22222", "BLOCKKEY": "202-366" }, "geometry": { "type": "Point", "coordinates": [ 379645.279199930722825, 317862.714799384586513 ] } },
    { "type": "Feature", "properties": { "PLACENAME": "Atpūtas vieta pie Zaņas upes", "PLACESUBTY": 2, "REG_CODE": "2", "LVM_DISTRI": "22229", "BLOCKKEY": "211-200" }, "geometry": { "type": "Point", "coordinates": [ 388887.29989995167125, 266464.561099642887712 ] } },
    { "type": "Feature", "properties": { "PLACENAME": "Atpūtas vieta Grobiņa- Bārta ceļa malā", "PLACESUBTY": 2, "REG_CODE": "2", "LVM_DISTRI": "22227", "BLOCKKEY": "209-304" }, "geometry": { "type": "Point", "coordinates": [ 329443.92069974320475, 255711.859595412388444 ] } },
    { "type": "Feature", "properties": { "PLACENAME": "Avotiņu atpūtas vieta", "PLACESUBTY": 2, "REG_CODE": "5", "LVM_DISTRI": "22521", "BLOCKKEY": "502-204" }, "geometry": { "type": "Point", "coordinates": [ 577203.694200007594191, 297340.154699956066906 ] } },
    { "type": "Feature", "properties": { "PLACENAME": "Atpūtas vieta pie Dunikas purva laipas", "PLACESUBTY": 2, "REG_CODE": "2", "LVM_DISTRI": "22231", "BLOCKKEY": "213-472" }, "geometry": { "type": "Point", "coordinates": [ 337986.136499762884341, 240446.47229669149965 ] } },
    { "type": "Feature", "properties": { "PLACENAME": "Kartavkalna dabas taka", "PLACESUBTY": 3, "REG_CODE": "6", "LVM_DISTRI": "22624", "BLOCKKEY": "605-107" }, "geometry": { "type": "Point", "coordinates": [ 439889.133199997828342, 286267.025499988347292 ] } },
    { "type": "Feature", "properties": { "PLACENAME": "Atpūtas vietas pie Segliņu ezera", "PLACESUBTY": 2, "REG_CODE": "2", "LVM_DISTRI": "22222", "BLOCKKEY": "202-216" }, "geometry": { "type": "Point", "coordinates": [ 394735.122299963491969, 328498.097799718379974 ] } },
    { "type": "Feature", "properties": { "PLACENAME": "Atpūtas vieta pie Karogu karjera", "PLACESUBTY": 2, "REG_CODE": "4", "LVM_DISTRI": "22421", "BLOCKKEY": "402-256" }, "geometry": { "type": "Point", "coordinates": [ 546693.391300000948831, 409674.197699995711446 ] } },
    { "type": "Feature", "properties": { "PLACENAME": "Atpūtas vieta Daugavas krastā", "PLACESUBTY": 2, "REG_CODE": "5", "LVM_DISTRI": "22523", "BLOCKKEY": "505-438" }, "geometry": { "type": "Point", "coordinates": [ 556392.29140000208281, 276732.528699993155897 ] } },
    { "type": "Feature", "properties": { "PLACENAME": "Ķirbižu meža taka", "PLACESUBTY": 3, "REG_CODE": "4", "LVM_DISTRI": "22424", "BLOCKKEY": "405-111" }, "geometry": { "type": "Point", "coordinates": [ 529179.125500000198372, 389906.4287 ] } },
    { "type": "Feature", "properties": { "PLACENAME": "Atpūtas vieta \"Stelpes dīķis\"", "PLACESUBTY": 2, "REG_CODE": "5", "LVM_DISTRI": "22527", "BLOCKKEY": "505-299" }, "geometry": { "type": "Point", "coordinates": [ 531341.766800000448711, 261573.295899998396635 ] } },
    { "type": "Feature", "properties": { "PLACENAME": "Atpūtas vieta Daugavas krastā", "PLACESUBTY": 2, "REG_CODE": "5", "LVM_DISTRI": "22523", "BLOCKKEY": "505-438" }, "geometry": { "type": "Point", "coordinates": [ 556451.086500001838431, 276684.575699992477894 ] } },
    { "type": "Feature", "properties": { "PLACENAME": "Atpūtas vieta \"Sēņotāju māja\"", "PLACESUBTY": 2, "REG_CODE": "5", "LVM_DISTRI": "22526", "BLOCKKEY": "504-10" }, "geometry": { "type": "Point", "coordinates": [ 535819.420300000463612, 289665.47889999859035 ] } },
    { "type": "Feature", "properties": { "PLACENAME": "Kokneses parks", "PLACESUBTY": 1, "REG_CODE": "5", "LVM_DISTRI": "22522", "BLOCKKEY": "503-273" }, "geometry": { "type": "Point", "coordinates": [ 587085.480200014542788, 278061.985099912621081 ] } },
    { "type": "Feature", "properties": { "PLACENAME": "Atpūtas vieta \"Magoņu krusts\"", "PLACESUBTY": 2, "REG_CODE": "5", "LVM_DISTRI": "22528", "BLOCKKEY": "510-144" }, "geometry": { "type": "Point", "coordinates": [ 562597.716000002808869, 260334.769299988634884 ] } },
    { "type": "Feature", "properties": { "PLACENAME": "Atpūtas vieta pie Priedaines", "PLACESUBTY": 2, "REG_CODE": "1", "LVM_DISTRI": "22123", "BLOCKKEY": "104-165" }, "geometry": { "type": "Point", "coordinates": [ 616178.472700057085603, 365263.010999471880496 ] } },
    { "type": "Feature", "properties": { "PLACENAME": "Alaines muižas ēku komplekss", "PLACESUBTY": 1, "REG_CODE": "5", "LVM_DISTRI": "22522", "BLOCKKEY": "503-629" }, "geometry": { "type": "Point", "coordinates": [ 587554.565900014596991, 278626.392499911598861 ] } },
    { "type": "Feature", "properties": { "PLACENAME": "Ellītes sēravots", "PLACESUBTY": 1, "REG_CODE": "5", "LVM_DISTRI": "22525", "BLOCKKEY": "507-45" }, "geometry": { "type": "Point", "coordinates": [ 577652.082700008177198, 260897.46329995803535 ] } },
    { "type": "Feature", "properties": { "PLACENAME": "Jaunpils Elles kalns", "PLACESUBTY": 1, "REG_CODE": "6", "LVM_DISTRI": "22624", "BLOCKKEY": "605-44" }, "geometry": { "type": "Point", "coordinates": [ 434276.717499996884726, 290581.739099983125925 ] } },
    { "type": "Feature", "properties": { "PLACENAME": "Atpūtas vieta \"Mucenieku mežs\"", "PLACESUBTY": 2, "REG_CODE": "6", "LVM_DISTRI": "22624", "BLOCKKEY": "605-346" }, "geometry": { "type": "Point", "coordinates": [ 447635.124799999175593, 275289.493999995291233 ] } },
    { "type": "Feature", "properties": { "PLACENAME": "Partizānu mītne", "PLACESUBTY": 1, "REG_CODE": "8", "LVM_DISTRI": "22826", "BLOCKKEY": "807-175" }, "geometry": { "type": "Point", "coordinates": [ 712102.865699449903332, 307555.22278190869838 ] } },
    { "type": "Feature", "properties": { "PLACENAME": "Atpūtas vieta pie jūras", "PLACESUBTY": 2, "REG_CODE": "2", "LVM_DISTRI": "22231", "BLOCKKEY": "213-40" }, "geometry": { "type": "Point", "coordinates": [ 313002.980999739142135, 238273.760892205871642 ] } },
    { "type": "Feature", "properties": { "PLACENAME": "Atpūtas vieta pie Garās līnijas", "PLACESUBTY": 2, "REG_CODE": "6", "LVM_DISTRI": "22625", "BLOCKKEY": "606-192" }, "geometry": { "type": "Point", "coordinates": [ 426539.06779999419814, 268815.528799967840314 ] } },
    { "type": "Feature", "properties": { "PLACENAME": "Atpūtas vieta pie Ziloņa ezera", "PLACESUBTY": 2, "REG_CODE": "2", "LVM_DISTRI": "22222", "BLOCKKEY": "202-47" }, "geometry": { "type": "Point", "coordinates": [ 395910.129199965740554, 332313.92419973667711 ] } },
    { "type": "Feature", "properties": { "PLACENAME": "Atpūtas vieta pie Spārnu ezera", "PLACESUBTY": 2, "REG_CODE": "6", "LVM_DISTRI": "22625", "BLOCKKEY": "606-160" }, "geometry": { "type": "Point", "coordinates": [ 441091.070999998541083, 268198.035099991597235 ] } },
    { "type": "Feature", "properties": { "PLACENAME": "Atpūtas vieta pie Ružu ezera", "PLACESUBTY": 2, "REG_CODE": "6", "LVM_DISTRI": "22625", "BLOCKKEY": "606-99" }, "geometry": { "type": "Point", "coordinates": [ 434899.982999996631406, 270670.766799984499812 ] } },
    { "type": "Feature", "properties": { "PLACENAME": "Putnu novērošanas tornis pie Papes ezera", "PLACESUBTY": 1, "REG_CODE": "2", "LVM_DISTRI": "22231", "BLOCKKEY": "213-84" }, "geometry": { "type": "Point", "coordinates": [ 314787.471699722635094, 231091.428992704488337 ] } },
    { "type": "Feature", "properties": { "PLACENAME": "Piemiņas vieta \"Bunkurs\"", "PLACESUBTY": 8, "REG_CODE": "3", "LVM_DISTRI": "22321", "BLOCKKEY": "303-330" }, "geometry": { "type": "Point", "coordinates": [ 604298.950800035498105, 238491.459299763664603 ] } },
    { "type": "Feature", "properties": { "PLACENAME": "Atpūtas vieta pie Rāceņu ezera", "PLACESUBTY": 2, "REG_CODE": "8", "LVM_DISTRI": "22821", "BLOCKKEY": "801-143" }, "geometry": { "type": "Point", "coordinates": [ 635255.083600115845911, 300437.055798792280257 ] } },
    { "type": "Feature", "properties": { "PLACENAME": "Muižuļu akmens", "PLACESUBTY": 1, "REG_CODE": "4", "LVM_DISTRI": "22423", "BLOCKKEY": "405-157" }, "geometry": { "type": "Point", "coordinates": [ 525443.230499999714084, 386648.068999998271465 ] } },
    { "type": "Feature", "properties": { "PLACENAME": "Kabiles partizānu piemiņas vieta", "PLACESUBTY": 8, "REG_CODE": "2", "LVM_DISTRI": "22225", "BLOCKKEY": "202-563" }, "geometry": { "type": "Point", "coordinates": [ 400534.131899972795509, 318259.401999803259969 ] } },
    { "type": "Feature", "properties": { "PLACENAME": "Atpūtas vieta \"Raibais stabiņš\"", "PLACESUBTY": 2, "REG_CODE": "5", "LVM_DISTRI": "22525", "BLOCKKEY": "511-10" }, "geometry": { "type": "Point", "coordinates": [ 574845.791000006953254, 250088.359199966304004 ] } },
    { "type": "Feature", "properties": { "PLACENAME": "Niedrāju-Pilkas purva taka", "PLACESUBTY": 3, "REG_CODE": "4", "LVM_DISTRI": "22424", "BLOCKKEY": "401-457" }, "geometry": { "type": "Point", "coordinates": [ 538061.519000000553206, 400102.488099999725819 ] } },
    { "type": "Feature", "properties": { "PLACENAME": "test", "PLACESUBTY": 2, "REG_CODE": "4", "LVM_DISTRI": "22427", "BLOCKKEY": "410-332" }, "geometry": { "type": "Point", "coordinates": [ 576049.601200007717125, 310295.657099958509207 ] } },
    { "type": "Feature", "properties": { "PLACENAME": "Minhauzena meža taka", "PLACESUBTY": 3, "REG_CODE": "4", "LVM_DISTRI": "22423", "BLOCKKEY": "405-349" }, "geometry": { "type": "Point", "coordinates": [ 524590.162299999967, 362829.49730000179261 ] } },
    { "type": "Feature", "properties": { "PLACENAME": "Atpūtas vieta pie Niedrāja ezera \"Lapene\"", "PLACESUBTY": 2, "REG_CODE": "1", "LVM_DISTRI": "22123", "BLOCKKEY": "104-129" }, "geometry": { "type": "Point", "coordinates": [ 618571.802800062345341, 367658.307399401441216 ] } },
    { "type": "Feature", "properties": { "PLACENAME": "Mīlestības taka", "PLACESUBTY": 3, "REG_CODE": "4", "LVM_DISTRI": "22425", "BLOCKKEY": "407-382" }, "geometry": { "type": "Point", "coordinates": [ 589953.793400016380474, 379246.968699883669615 ] } },
    { "type": "Feature", "properties": { "PLACENAME": "Atpūtas vieta pie Niedrāja ezera \"Ziemeļu gals\"", "PLACESUBTY": 2, "REG_CODE": "1", "LVM_DISTRI": "22123", "BLOCKKEY": "104-128" }, "geometry": { "type": "Point", "coordinates": [ 618526.39030006271787, 367962.003499404527247 ] } },
    { "type": "Feature", "properties": { "PLACENAME": "Atpūtas vieta pie Ēkāju ozola", "PLACESUBTY": 2, "REG_CODE": "4", "LVM_DISTRI": "22421", "BLOCKKEY": "401-69" }, "geometry": { "type": "Point", "coordinates": [ 529587.83530000038445, 418961.306899999268353 ] } },
    { "type": "Feature", "properties": { "PLACENAME": "Atpūtas vieta pie Niedrāja ezera \"Inteliģentu laipa\"", "PLACESUBTY": 2, "REG_CODE": "1", "LVM_DISTRI": "22123", "BLOCKKEY": "104-128" }, "geometry": { "type": "Point", "coordinates": [ 618451.175900062662549, 367692.366799406707287 ] } },
    { "type": "Feature", "properties": { "PLACENAME": "Atpūtas vieta \"Ventspils piekraste\"", "PLACESUBTY": 2, "REG_CODE": "7", "LVM_DISTRI": "22725", "BLOCKKEY": "708-291" }, "geometry": { "type": "Point", "coordinates": [ 348208.808499837294221, 358280.714497409760952 ] } },
    { "type": "Feature", "properties": { "PLACENAME": "Atpūtas vieta \"Zaķu pļava\"", "PLACESUBTY": 2, "REG_CODE": "6", "LVM_DISTRI": "22626", "BLOCKKEY": "611-159" }, "geometry": { "type": "Point", "coordinates": [ 470959.630599999800324, 253255.739299999549985 ] } },
    { "type": "Feature", "properties": { "PLACENAME": "Piemineklis \"Zūru briedis\"", "PLACESUBTY": 1, "REG_CODE": "7", "LVM_DISTRI": "22726", "BLOCKKEY": "709-111" }, "geometry": { "type": "Point", "coordinates": [ 371635.716899910476059, 351546.846299058757722 ] } },
    { "type": "Feature", "properties": { "PLACENAME": "LVM atpūtas un tūrisma centrs \"Ezernieki\"", "PLACESUBTY": 7, "REG_CODE": "8", "LVM_DISTRI": "22822", "BLOCKKEY": "802-692" }, "geometry": { "type": "Point", "coordinates": [ 656660.805700196535327, 299368.834597091190517 ] } },
    { "type": "Feature", "properties": { "PLACENAME": "Atpūtas vieta \"Kārļa masts\"", "PLACESUBTY": 2, "REG_CODE": "6", "LVM_DISTRI": "22626", "BLOCKKEY": "607-95" }, "geometry": { "type": "Point", "coordinates": [ 446892.675999998871703, 253600.319099994376302 ] } },
    { "type": "Feature", "properties": { "PLACENAME": "Atpūtas vieta pie Gaišā ezera", "PLACESUBTY": 2, "REG_CODE": "3", "LVM_DISTRI": "22325", "BLOCKKEY": "309-342" }, "geometry": { "type": "Point", "coordinates": [ 655080.740000217221677, 202456.927697570994496 ] } },
    { "type": "Feature", "properties": { "PLACENAME": "Dabas taka Līgatnes upes krastā", "PLACESUBTY": 3, "REG_CODE": "4", "LVM_DISTRI": "22427", "BLOCKKEY": "410-14" }, "geometry": { "type": "Point", "coordinates": [ 570242.150100004975684, 332231.717399973422289 ] } },
    { "type": "Feature", "properties": { "PLACENAME": "Atpūtas vieta pie Riebiņu ezera", "PLACESUBTY": 2, "REG_CODE": "4", "LVM_DISTRI": "22425", "BLOCKKEY": "407-521" }, "geometry": { "type": "Point", "coordinates": [ 557929.569500001962297, 359538.706699991598725 ] } },
    { "type": "Feature", "properties": { "PLACENAME": "Ugāles parks", "PLACESUBTY": 1, "REG_CODE": "7", "LVM_DISTRI": "22721", "BLOCKKEY": "710-138" }, "geometry": { "type": "Point", "coordinates": [ 381922.445899937592912, 350264.705799428746104 ] } },
    { "type": "Feature", "properties": { "PLACENAME": "Atpūtas vieta \"Miķeļtornis\"", "PLACESUBTY": 2, "REG_CODE": "7", "LVM_DISTRI": "22723", "BLOCKKEY": "701-108" }, "geometry": { "type": "Point", "coordinates": [ 379271.954399932816159, 383978.439499321393669 ] } },
    { "type": "Feature", "properties": { "PLACENAME": "Atpūtas vieta \"Sabiles jūrmala\"", "PLACESUBTY": 2, "REG_CODE": "7", "LVM_DISTRI": "22727", "BLOCKKEY": "714-213" }, "geometry": { "type": "Point", "coordinates": [ 412083.18349998537451, 324399.565499904565513 ] } },
    { "type": "Feature", "properties": { "PLACENAME": "Atpūtas vieta pie kāpām", "PLACESUBTY": 2, "REG_CODE": "2", "LVM_DISTRI": "22231", "BLOCKKEY": "213-23" }, "geometry": { "type": "Point", "coordinates": [ 313395.175699739833362, 240120.422492285259068 ] } },
    { "type": "Feature", "properties": { "PLACENAME": "Grebu kalni", "PLACESUBTY": 1, "REG_CODE": "4", "LVM_DISTRI": "22425", "BLOCKKEY": "407-167" }, "geometry": { "type": "Point", "coordinates": [ 559368.093300001928583, 386858.205699988640845 ] } },
    { "type": "Feature", "properties": { "PLACENAME": "Jeru meža taka", "PLACESUBTY": 3, "REG_CODE": "4", "LVM_DISTRI": "22422", "BLOCKKEY": "404-329" }, "geometry": { "type": "Point", "coordinates": [ 581309.028900010162033, 408532.94919993262738 ] } },
    { "type": "Feature", "properties": { "PLACENAME": "Riteņbraucēju tilts", "PLACESUBTY": 4, "REG_CODE": "1", "LVM_DISTRI": "22123", "BLOCKKEY": "104-150" }, "geometry": { "type": "Point", "coordinates": [ 618605.636300063226372, 366307.024199402891099 ] } },
    { "type": "Feature", "properties": { "PLACENAME": "Riteņbraucēju tilts", "PLACESUBTY": 4, "REG_CODE": "1", "LVM_DISTRI": "22123", "BLOCKKEY": "104-136" }, "geometry": { "type": "Point", "coordinates": [ 618010.432700061355717, 366577.665399420075119 ] } },
    { "type": "Feature", "properties": { "PLACENAME": "Bramberģes atpūtas vieta", "PLACESUBTY": 2, "REG_CODE": "6", "LVM_DISTRI": "22627", "BLOCKKEY": "608-265" }, "geometry": { "type": "Point", "coordinates": [ 474672.173100000189152, 276895.422199998982251 ] } },
    { "type": "Feature", "properties": { "PLACENAME": "Riteņbraucēju tilts", "PLACESUBTY": 4, "REG_CODE": "1", "LVM_DISTRI": "22123", "BLOCKKEY": "104-133" }, "geometry": { "type": "Point", "coordinates": [ 617300.576400059391744, 367087.678899438120425 ] } },
    { "type": "Feature", "properties": { "PLACENAME": "Smiltenes velotakas", "PLACESUBTY": 4, "REG_CODE": "1", "LVM_DISTRI": "22123", "BLOCKKEY": "104-128" }, "geometry": { "type": "Point", "coordinates": [ 618169.652500061551109, 367681.764199416153133 ] } },
    { "type": "Feature", "properties": { "PLACENAME": "Dabas taka gar Abulu", "PLACESUBTY": 3, "REG_CODE": "1", "LVM_DISTRI": "22123", "BLOCKKEY": "104-132" }, "geometry": { "type": "Point", "coordinates": [ 615660.437900056247599, 366486.057399484328926 ] } },
    { "type": "Feature", "properties": { "PLACENAME": "Atpūtas vieta pie Pātraža ezera", "PLACESUBTY": 2, "REG_CODE": "1", "LVM_DISTRI": "22125", "BLOCKKEY": "106-618" }, "geometry": { "type": "Point", "coordinates": [ 663881.622600186150521, 358433.812195900827646 ] } },
    { "type": "Feature", "properties": { "PLACENAME": "Atpūtas vieta pie Vaidavas ezera", "PLACESUBTY": 2, "REG_CODE": "1", "LVM_DISTRI": "22125", "BLOCKKEY": "107-44" }, "geometry": { "type": "Point", "coordinates": [ 686089.37230002915021, 383474.928990934975445 ] } },
    { "type": "Feature", "properties": { "PLACENAME": "Atpūtas vieta \"Vecmuižas ezers\"", "PLACESUBTY": 2, "REG_CODE": "5", "LVM_DISTRI": "22522", "BLOCKKEY": "503-77" }, "geometry": { "type": "Point", "coordinates": [ 598952.806800027377903, 306551.8055998114869 ] } },
    { "type": "Feature", "properties": { "PLACENAME": "Atpūtas vieta pie ceļa uz Ložmetējkalnu", "PLACESUBTY": 2, "REG_CODE": "6", "LVM_DISTRI": "22628", "BLOCKKEY": "609-2" }, "geometry": { "type": "Point", "coordinates": [ 477901.251000000105705, 302323.555599999614 ] } },
    { "type": "Feature", "properties": { "PLACENAME": "Skolas ceļa atpūtas vieta", "PLACESUBTY": 2, "REG_CODE": "6", "LVM_DISTRI": "22628", "BLOCKKEY": "609-69" }, "geometry": { "type": "Point", "coordinates": [ 479235.208599999430589, 296785.475299999117851 ] } },
    { "type": "Feature", "properties": { "PLACENAME": "Atpūtas vieta pie Ārijas-Jankovski ceļa", "PLACESUBTY": 2, "REG_CODE": "6", "LVM_DISTRI": "22628", "BLOCKKEY": "610-172" }, "geometry": { "type": "Point", "coordinates": [ 492347.626500000245869, 278114.475400000810623 ] } },
    { "type": "Feature", "properties": { "PLACENAME": "Viesatas upesloki", "PLACESUBTY": 3, "REG_CODE": "6", "LVM_DISTRI": "22624", "BLOCKKEY": "603-314" }, "geometry": { "type": "Point", "coordinates": [ 436916.270999996981118, 298036.751299986615777 ] } },
    { "type": "Feature", "properties": { "PLACENAME": "Sēmes dabas taka pie Sēmas skolas", "PLACESUBTY": 3, "REG_CODE": "6", "LVM_DISTRI": "22621", "BLOCKKEY": "601-460" }, "geometry": { "type": "Point", "coordinates": [ 447698.766899999056477, 322721.669399993494153 ] } },
    { "type": "Feature", "properties": { "PLACENAME": "Naudas akmens", "PLACESUBTY": 1, "REG_CODE": "1", "LVM_DISTRI": "22123", "BLOCKKEY": "104-125" }, "geometry": { "type": "Point", "coordinates": [ 619532.329100064816885, 369057.696399370208383 ] } },
    { "type": "Feature", "properties": { "PLACENAME": "Eglones dižkoku taka", "PLACESUBTY": 3, "REG_CODE": "3", "LVM_DISTRI": "22324", "BLOCKKEY": "307-327" }, "geometry": { "type": "Point", "coordinates": [ 631446.976000107591972, 228687.229199066758156 ] } },
    { "type": "Feature", "properties": { "PLACENAME": "Atpūtas vieta \"Dižais mežs\"", "PLACESUBTY": 2, "REG_CODE": "2", "LVM_DISTRI": "22228", "BLOCKKEY": "210-292" }, "geometry": { "type": "Point", "coordinates": [ 352135.245899827277754, 249695.24889806471765 ] } },
    { "type": "Feature", "properties": { "PLACENAME": "LVM dabas parks Tērvetē", "PLACESUBTY": 7, "REG_CODE": "6", "LVM_DISTRI": "22626", "BLOCKKEY": "607-200" }, "geometry": { "type": "Point", "coordinates": [ 461393.3562, 260515.453600000590086 ] } },
    { "type": "Feature", "properties": { "PLACENAME": "LVM Jaunmoku pils", "PLACESUBTY": 7, "REG_CODE": "6", "LVM_DISTRI": "22622", "BLOCKKEY": "603-125" }, "geometry": { "type": "Point", "coordinates": [ 442538.562199997890275, 315801.499399990774691 ] } },
    { "type": "Feature", "properties": { "PLACENAME": "Pūsēnkalns", "PLACESUBTY": 1, "REG_CODE": "2", "LVM_DISTRI": "22231", "BLOCKKEY": "213-8" }, "geometry": { "type": "Point", "coordinates": [ 314037.605099746724591, 246751.717392380349338 ] } },
    { "type": "Feature", "properties": { "PLACENAME": "LVM Pokaiņu mežs", "PLACESUBTY": 7, "REG_CODE": "6", "LVM_DISTRI": "22625", "BLOCKKEY": "607-270" }, "geometry": { "type": "Point", "coordinates": [ 442905.669099997845478, 270657.056799991987646 ] } },
    { "type": "Feature", "properties": { "PLACENAME": "Atpūtas vieta \"Zebrus ezers\"", "PLACESUBTY": 2, "REG_CODE": "6", "LVM_DISTRI": "22625", "BLOCKKEY": "605-261" }, "geometry": { "type": "Point", "coordinates": [ 439542.038199998089112, 276510.600399989634752 ] } },
    { "type": "Feature", "properties": { "PLACENAME": "Atpūtas vieta \"Garie kalni\"", "PLACESUBTY": 2, "REG_CODE": "6", "LVM_DISTRI": "22627", "BLOCKKEY": "608-288" }, "geometry": { "type": "Point", "coordinates": [ 478656.325299999676645, 275922.30449999962 ] } },
    { "type": "Feature", "properties": { "PLACENAME": "Lielplatones taka", "PLACESUBTY": 3, "REG_CODE": "6", "LVM_DISTRI": "22626", "BLOCKKEY": "611-208" }, "geometry": { "type": "Point", "coordinates": [ 477387.951399999670684, 252824.965500000864267 ] } },
    { "type": "Feature", "properties": { "PLACENAME": "Atpūtas vieta \"Dunikas purva laipa\"", "PLACESUBTY": 2, "REG_CODE": "2", "LVM_DISTRI": "22231", "BLOCKKEY": "213-533" }, "geometry": { "type": "Point", "coordinates": [ 338649.090399764245376, 236847.03349678684026 ] } },
    { "type": "Feature", "properties": { "PLACENAME": "Kaltenes kalvas", "PLACESUBTY": 1, "REG_CODE": "7", "LVM_DISTRI": "22728", "BLOCKKEY": "707-285" }, "geometry": { "type": "Point", "coordinates": [ 431345.68759999552276, 368963.310399977490306 ] } },
    { "type": "Feature", "properties": { "PLACENAME": "Piemiņas vieta \"1. pasaules kara vācu brāļu kapi\"", "PLACESUBTY": 8, "REG_CODE": "3", "LVM_DISTRI": "22321", "BLOCKKEY": "301-47" }, "geometry": { "type": "Point", "coordinates": [ 600291.706400028895587, 261279.362199805676937 ] } },
    { "type": "Feature", "properties": { "PLACENAME": "Piemiņas vieta \"1. pasaules kara vācu brāļu kapi\"", "PLACESUBTY": 8, "REG_CODE": "3", "LVM_DISTRI": "22321", "BLOCKKEY": "301-54" }, "geometry": { "type": "Point", "coordinates": [ 601179.385300030815415, 261778.102799796499312 ] } },
    { "type": "Feature", "properties": { "PLACENAME": "Stompaku partizānu mītne", "PLACESUBTY": 1, "REG_CODE": "8", "LVM_DISTRI": "22824", "BLOCKKEY": "806-145" }, "geometry": { "type": "Point", "coordinates": [ 712969.903699223767035, 338834.32288072258234 ] } },
    { "type": "Feature", "properties": { "PLACENAME": "Atpūtas vieta \"Driksnas sils\"", "PLACESUBTY": 2, "REG_CODE": "8", "LVM_DISTRI": "22821", "BLOCKKEY": "801-269" }, "geometry": { "type": "Point", "coordinates": [ 635877.820000120438635, 283854.479498783126473 ] } },
    { "type": "Feature", "properties": { "PLACENAME": "Svētes ezers", "PLACESUBTY": 1, "REG_CODE": "6", "LVM_DISTRI": "22625", "BLOCKKEY": "606-55" }, "geometry": { "type": "Point", "coordinates": [ 438146.970999997342005, 274963.2816999880597 ] } },
    { "type": "Feature", "properties": { "PLACENAME": "Atpūtas vieta \"Kalnciema skolas taka\"", "PLACESUBTY": 2, "REG_CODE": "6", "LVM_DISTRI": "22628", "BLOCKKEY": "609-66" }, "geometry": { "type": "Point", "coordinates": [ 477344.563199999684002, 296144.740899999625981 ] } },
    { "type": "Feature", "properties": { "PLACENAME": "Atpūtas vieta \"Klīves 68.kv. dīķis\"", "PLACESUBTY": 2, "REG_CODE": "6", "LVM_DISTRI": "22628", "BLOCKKEY": "609-68" }, "geometry": { "type": "Point", "coordinates": [ 478482.5729, 296234.120299999602139 ] } },
    { "type": "Feature", "properties": { "PLACENAME": "Piemiņas vieta \"Māras birzs\"", "PLACESUBTY": 8, "REG_CODE": "6", "LVM_DISTRI": "22625", "BLOCKKEY": "606-134" }, "geometry": { "type": "Point", "coordinates": [ 435696.023799996473826, 269486.759199984371662 ] } },
    { "type": "Feature", "properties": { "PLACENAME": "Silakalns", "PLACESUBTY": 1, "REG_CODE": "6", "LVM_DISTRI": "22626", "BLOCKKEY": "611-181" }, "geometry": { "type": "Point", "coordinates": [ 463738.314799999585375, 248226.684299998916686 ] } },
    { "type": "Feature", "properties": { "PLACENAME": "Atpūtas vieta \"Tērvetes pansionāts\"", "PLACESUBTY": 2, "REG_CODE": "6", "LVM_DISTRI": "22626", "BLOCKKEY": "607-178" }, "geometry": { "type": "Point", "coordinates": [ 458222.342099999601487, 259235.008199997246265 ] } },
    { "type": "Feature", "properties": { "PLACENAME": "Atpūtas vieta \"Ezerlūķi\"", "PLACESUBTY": 2, "REG_CODE": "6", "LVM_DISTRI": "22625", "BLOCKKEY": "605-260" }, "geometry": { "type": "Point", "coordinates": [ 439283.294599997345358, 277131.881399990059435 ] } },
    { "type": "Feature", "properties": { "PLACENAME": "Struteles Dievu kalns", "PLACESUBTY": 1, "REG_CODE": "6", "LVM_DISTRI": "22624", "BLOCKKEY": "603" }, "geometry": { "type": "Point", "coordinates": [ 433465.522899996605702, 294787.497299982234836 ] } },
    { "type": "Feature", "properties": { "PLACENAME": "Atpūtas vieta \"Gambija\"", "PLACESUBTY": 2, "REG_CODE": "3", "LVM_DISTRI": "22321", "BLOCKKEY": "303-263" }, "geometry": { "type": "Point", "coordinates": [ 592091.984200019040145, 254032.271599884144962 ] } },
    { "type": "Feature", "properties": { "PLACENAME": "Sedas dabas taka", "PLACESUBTY": 3, "REG_CODE": "1", "LVM_DISTRI": "22121", "BLOCKKEY": "102" }, "geometry": { "type": "Point", "coordinates": [ 601943.083600029931404, 396667.176099751144648 ] } },
    { "type": "Feature", "properties": { "PLACENAME": "Atpūtas vieta Septiņi krusti", "PLACESUBTY": 2, "REG_CODE": "2", "LVM_DISTRI": "22221", "BLOCKKEY": "201" }, "geometry": { "type": "Point", "coordinates": [ 371467.288599907653406, 326665.158499080687761 ] } },
    { "type": "Feature", "properties": { "PLACENAME": "Aklā purva taka", "PLACESUBTY": 3, "REG_CODE": "5", "LVM_DISTRI": "22524", "BLOCKKEY": "506-222" }, "geometry": { "type": "Point", "coordinates": [ 568038.651300004101358, 263397.462299980223179 ] } },
    { "type": "Feature", "properties": { "PLACENAME": "Atpūtas vieta \"Riežupe\"", "PLACESUBTY": 2, "REG_CODE": "2", "LVM_DISTRI": "22222", "BLOCKKEY": "202-330" }, "geometry": { "type": "Point", "coordinates": [ 377303.146899924962781, 320220.047399308532476 ] } },
    { "type": "Feature", "properties": { "PLACENAME": "Dzeltenās priedes", "PLACESUBTY": 1, "REG_CODE": "6", "LVM_DISTRI": "22621", "BLOCKKEY": "601-297" }, "geometry": { "type": "Point", "coordinates": [ 448973.138999999384396, 332209.893999995663762 ] } },
    { "type": "Feature", "properties": { "PLACENAME": "Bērzciema atpūtas vieta", "PLACESUBTY": 2, "REG_CODE": "6", "LVM_DISTRI": "22621", "BLOCKKEY": "601-14" }, "geometry": { "type": "Point", "coordinates": [ 449755.789099998830352, 348435.503699995577335 ] } },
    { "type": "Feature", "properties": { "PLACENAME": "Kalnansu purvs", "PLACESUBTY": 1, "REG_CODE": "2", "LVM_DISTRI": "22225", "BLOCKKEY": "207-26" }, "geometry": { "type": "Point", "coordinates": [ 402209.966699974203948, 308049.660899824462831 ] } },
    { "type": "Feature", "properties": { "PLACENAME": "Atpūtas vieta \"Krāslavas priežu sils\"", "PLACESUBTY": 2, "REG_CODE": "3", "LVM_DISTRI": "22326", "BLOCKKEY": "311-280" }, "geometry": { "type": "Point", "coordinates": [ 699438.839600229053758, 197977.335189085453749 ] } },
    { "type": "Feature", "properties": { "PLACENAME": "Riteņbraucēju- gājēju laipas", "PLACESUBTY": 4, "REG_CODE": "1", "LVM_DISTRI": "22123", "BLOCKKEY": "104-166" }, "geometry": { "type": "Point", "coordinates": [ 617400.437400060356595, 364564.041099437512457 ] } },
    { "type": "Feature", "properties": { "PLACENAME": "Ragakāpas dabas taka", "PLACESUBTY": 3, "REG_CODE": "6", "LVM_DISTRI": "22628", "BLOCKKEY": "609-302" }, "geometry": { "type": "Point", "coordinates": [ 495096.0, 316910.0 ] } },
    { "type": "Feature", "properties": { "PLACENAME": "Priedaines skatu tornis", "PLACESUBTY": 1, "REG_CODE": "3", "LVM_DISTRI": "22326", "BLOCKKEY": "313-274" }, "geometry": { "type": "Point", "coordinates": [ 696721.467500258935615, 198607.076189938001335 ] } },
    { "type": "Feature", "properties": { "PLACENAME": "Atpūtas vieta \"Jumurda\"", "PLACESUBTY": 2, "REG_CODE": "4", "LVM_DISTRI": "22428", "BLOCKKEY": "412-314" }, "geometry": { "type": "Point", "coordinates": [ 604647.854200035333633, 315057.363099734298885 ] } },
    { "type": "Feature", "properties": { "PLACENAME": "Tabakpurva atpūtas vieta", "PLACESUBTY": 2, "REG_CODE": "5", "LVM_DISTRI": "22524", "BLOCKKEY": "506-69" }, "geometry": { "type": "Point", "coordinates": [ 568360.348800003994256, 270991.909899979829788 ] } },
    { "type": "Feature", "properties": { "PLACENAME": "Atpūtas vieta \"Banksa priedes\"", "PLACESUBTY": 2, "REG_CODE": "3", "LVM_DISTRI": "22327", "BLOCKKEY": "313-114" }, "geometry": { "type": "Point", "coordinates": [ 672117.004800310358405, 175435.343295610509813 ] } },
    { "type": "Feature", "properties": { "PLACENAME": "Atpūtas vieta \"Ventspils piekraste\"", "PLACESUBTY": 2, "REG_CODE": "7", "LVM_DISTRI": "22725", "BLOCKKEY": "708-287" }, "geometry": { "type": "Point", "coordinates": [ 349557.3995998413302, 359813.101297537796199 ] } },
    { "type": "Feature", "properties": { "PLACENAME": "Atpūtas vieta \"Papardes stacija\"", "PLACESUBTY": 2, "REG_CODE": "1", "LVM_DISTRI": "22126", "BLOCKKEY": "108-211" }, "geometry": { "type": "Point", "coordinates": [ 680608.218000138760544, 355490.610892682336271 ] } },
    { "type": "Feature", "properties": { "PLACENAME": "Atpūtas vieta pie Ādmiņa ezera", "PLACESUBTY": 2, "REG_CODE": "1", "LVM_DISTRI": "22127", "BLOCKKEY": "109-150" }, "geometry": { "type": "Point", "coordinates": [ 645156.587000144994818, 349551.886098039336503 ] } },
    { "type": "Feature", "properties": { "PLACENAME": "Atpūtas vieta pie sēravota un Gaujas", "PLACESUBTY": 2, "REG_CODE": "1", "LVM_DISTRI": "22127", "BLOCKKEY": "110-253" }, "geometry": { "type": "Point", "coordinates": [ 653983.287600172217935, 350109.942497207783163 ] } },
    { "type": "Feature", "properties": { "PLACENAME": "Atpūtas vieta pie Murata ezera", "PLACESUBTY": 2, "REG_CODE": "1", "LVM_DISTRI": "22125", "BLOCKKEY": "107-17" }, "geometry": { "type": "Point", "coordinates": [ 684682.589600046165287, 385521.32509131450206 ] } },
    { "type": "Feature", "properties": { "PLACENAME": "Atpūtas vieta \"Papes dabas parks mūs gaida\"", "PLACESUBTY": 2, "REG_CODE": "2", "LVM_DISTRI": "22231", "BLOCKKEY": "213-24" }, "geometry": { "type": "Point", "coordinates": [ 314062.460999737144448, 239876.059092450886965 ] } },
    { "type": "Feature", "properties": { "PLACENAME": "Atpūtas vieta \"Dunikas purva laipas saliņa\"", "PLACESUBTY": 2, "REG_CODE": "2", "LVM_DISTRI": "22231", "BLOCKKEY": "213-472" }, "geometry": { "type": "Point", "coordinates": [ 337950.356499761925079, 238828.14159669354558 ] } },
    { "type": "Feature", "properties": { "PLACENAME": "Atpūtas vieta pie Slujas ezera", "PLACESUBTY": 2, "REG_CODE": "2", "LVM_DISTRI": "22222", "BLOCKKEY": "202-88" }, "geometry": { "type": "Point", "coordinates": [ 389256.434799953480251, 330440.479899620637298 ] } },
    { "type": "Feature", "properties": { "PLACENAME": "Atpūtas vieta pie Papes dabas takas", "PLACESUBTY": 2, "REG_CODE": "2", "LVM_DISTRI": "22231", "BLOCKKEY": "213-79" }, "geometry": { "type": "Point", "coordinates": [ 313006.30289973388426, 234605.430292241275311 ] } },
    { "type": "Feature", "properties": { "PLACENAME": "Atpūtas vieta \"Rucavas Priežu mežs\"", "PLACESUBTY": 2, "REG_CODE": "2", "LVM_DISTRI": "22231", "BLOCKKEY": "213" }, "geometry": { "type": "Point", "coordinates": [ 321914.776099714683369, 230750.449594235979021 ] } },
    { "type": "Feature", "properties": { "PLACENAME": "Atpūtas vieta pie Maltu kraujas ceļa", "PLACESUBTY": 2, "REG_CODE": "1", "LVM_DISTRI": "22125", "BLOCKKEY": "106-380" }, "geometry": { "type": "Point", "coordinates": [ 666980.372300178627484, 369148.858195351436734 ] } },
    { "type": "Feature", "properties": { "PLACENAME": "Atpūtas vieta pie Pinku ezera", "PLACESUBTY": 2, "REG_CODE": "2", "LVM_DISTRI": "22221", "BLOCKKEY": "201-332" }, "geometry": { "type": "Point", "coordinates": [ 359700.602499867673032, 320027.460398457944393 ] } },
    { "type": "Feature", "properties": { "PLACENAME": "Riežupes dabas parks", "PLACESUBTY": 2, "REG_CODE": "2", "LVM_DISTRI": "22222", "BLOCKKEY": "202-358" }, "geometry": { "type": "Point", "coordinates": [ 379001.242499929154292, 318613.091299364343286 ] } },
    { "type": "Feature", "properties": { "PLACENAME": "Atpūtas vieta pie Sviriņu ezera", "PLACESUBTY": 2, "REG_CODE": "2", "LVM_DISTRI": "22222", "BLOCKKEY": "202-445" }, "geometry": { "type": "Point", "coordinates": [ 390976.993899956927635, 320621.708399658091366 ] } },
    { "type": "Feature", "properties": { "PLACENAME": "Atpūtas vieta pie Veides meža", "PLACESUBTY": 2, "REG_CODE": "2", "LVM_DISTRI": "22229", "BLOCKKEY": "211-347" }, "geometry": { "type": "Point", "coordinates": [ 408260.177699981199112, 280451.352499881759286 ] } },
    { "type": "Feature", "properties": { "PLACENAME": "Atpūtas vieta \"Papes dabas parks\"", "PLACESUBTY": 2, "REG_CODE": "2", "LVM_DISTRI": "22231", "BLOCKKEY": "213-51" }, "geometry": { "type": "Point", "coordinates": [ 313695.118899735098239, 237229.262292386032641 ] } },
    { "type": "Feature", "properties": { "PLACENAME": "Kangaru ezers", "PLACESUBTY": 1, "REG_CODE": "4", "LVM_DISTRI": "22426", "BLOCKKEY": "409-627" }, "geometry": { "type": "Point", "coordinates": [ 544429.827400000300258, 308708.767999996431172 ] } },
    { "type": "Feature", "properties": { "PLACENAME": "Augstrozes pilsdrupas", "PLACESUBTY": 1, "REG_CODE": "4", "LVM_DISTRI": "22423", "BLOCKKEY": "406-293" }, "geometry": { "type": "Point", "coordinates": [ 560627.482100001885556, 375107.374499988742173 ] } },
    { "type": "Feature", "properties": { "PLACENAME": "Ugunsapsardzības tornis „Gustiņi”", "PLACESUBTY": 1, "REG_CODE": "3", "LVM_DISTRI": "22321", "BLOCKKEY": "301-34" }, "geometry": { "type": "Point", "coordinates": [ 604050.265100035467185, 264647.895799756981432 ] } },
    { "type": "Feature", "properties": { "PLACENAME": "Atpūtas vieta \"Pie kuiļa\"", "PLACESUBTY": 2, "REG_CODE": "3", "LVM_DISTRI": "22321", "BLOCKKEY": "303-160" }, "geometry": { "type": "Point", "coordinates": [ 584207.828300012508407, 246250.57589993160218 ] } },
    { "type": "Feature", "properties": { "PLACENAME": "Egļukalns", "PLACESUBTY": 1, "REG_CODE": "3", "LVM_DISTRI": "22327", "BLOCKKEY": "312-105" }, "geometry": { "type": "Point", "coordinates": [ 645793.984600172378123, 194422.153498337604105 ] } },
    { "type": "Feature", "properties": { "PLACENAME": "Atpūtas vieta \"Šilovka\"", "PLACESUBTY": 2, "REG_CODE": "3", "LVM_DISTRI": "22326", "BLOCKKEY": "313-303" }, "geometry": { "type": "Point", "coordinates": [ 702946.887800192460418, 192240.413787965662777 ] } },
    { "type": "Feature", "properties": { "PLACENAME": "Atpūtas vieta \"Jaunais ceļš\"", "PLACESUBTY": 2, "REG_CODE": "3", "LVM_DISTRI": "22324", "BLOCKKEY": "308-111" }, "geometry": { "type": "Point", "coordinates": [ 643875.32630015979521, 218962.555698418058455 ] } },
    { "type": "Feature", "properties": { "PLACENAME": "Čertoka ezers (Valnezers)", "PLACESUBTY": 1, "REG_CODE": "3", "LVM_DISTRI": "22326", "BLOCKKEY": "311-205" }, "geometry": { "type": "Point", "coordinates": [ 694024.64350024308078, 219762.007090493105352 ] } },
    { "type": "Feature", "properties": { "PLACENAME": "Gārsenes dabas taka", "PLACESUBTY": 3, "REG_CODE": "3", "LVM_DISTRI": "22324", "BLOCKKEY": "307-87" }, "geometry": { "type": "Point", "coordinates": [ 613364.187900054384954, 219320.760499619878829 ] } },
    { "type": "Feature", "properties": { "PLACENAME": "Upursalas dabas taka", "PLACESUBTY": 3, "REG_CODE": "3", "LVM_DISTRI": "22323", "BLOCKKEY": "306-293" }, "geometry": { "type": "Point", "coordinates": [ 685799.394900283077732, 224795.93499262444675 ] } },
    { "type": "Feature", "properties": { "PLACENAME": "Atpūtas vieta pie Linmārka ezera", "PLACESUBTY": 2, "REG_CODE": "2", "LVM_DISTRI": "22222", "BLOCKKEY": "202-217" }, "geometry": { "type": "Point", "coordinates": [ 396082.820299965562299, 329260.40659974142909 ] } },
    { "type": "Feature", "properties": { "PLACENAME": "Atpūtas vieta \"Dzilnas\"", "PLACESUBTY": 2, "REG_CODE": "3", "LVM_DISTRI": "22323", "BLOCKKEY": "306-241" }, "geometry": { "type": "Point", "coordinates": [ 665844.282800255925395, 231879.076896234415472 ] } },
    { "type": "Feature", "properties": { "PLACENAME": "Sūnu taka", "PLACESUBTY": 3, "REG_CODE": "5", "LVM_DISTRI": "22524", "BLOCKKEY": "502" }, "geometry": { "type": "Point", "coordinates": [ 564026.537600003532134, 275932.078099985606968 ] } },
    { "type": "Feature", "properties": { "PLACENAME": "Ūdenstūristu nakšņošanas vieta pie Pededzes", "PLACESUBTY": 2, "REG_CODE": "1", "LVM_DISTRI": "22126", "BLOCKKEY": "108-284" }, "geometry": { "type": "Point", "coordinates": [ 685957.285000087576918, 352963.085891309194267 ] } },
    { "type": "Feature", "properties": { "PLACENAME": "Atpūtas vieta pie Nātiņa ceļa", "PLACESUBTY": 2, "REG_CODE": "1", "LVM_DISTRI": "22127", "BLOCKKEY": "110-213" }, "geometry": { "type": "Point", "coordinates": [ 651504.679900164133869, 351437.711697461083531 ] } },
    { "type": "Feature", "properties": { "PLACENAME": "Atpūtas vieta pie Kara ceļa", "PLACESUBTY": 2, "REG_CODE": "1", "LVM_DISTRI": "22127", "BLOCKKEY": "110-385" }, "geometry": { "type": "Point", "coordinates": [ 661423.212900187936611, 349256.107296296395361 ] } },
    { "type": "Feature", "properties": { "PLACENAME": "Atpūtas vieta pie Mežvidu-2 ceļa", "PLACESUBTY": 2, "REG_CODE": "1", "LVM_DISTRI": "22127", "BLOCKKEY": "110-459" }, "geometry": { "type": "Point", "coordinates": [ 660435.96330018970184, 342348.048496460542083 ] } },
    { "type": "Feature", "properties": { "PLACENAME": "Atpūtas vieta \"Pie medņa\"", "PLACESUBTY": 2, "REG_CODE": "8", "LVM_DISTRI": "22822", "BLOCKKEY": "802-138" }, "geometry": { "type": "Point", "coordinates": [ 652884.843500180053525, 311605.91379744745791 ] } },
    { "type": "Feature", "properties": { "PLACENAME": "Atpūtas vieta \"Balvu vecais parks\"", "PLACESUBTY": 2, "REG_CODE": "8", "LVM_DISTRI": "22824", "BLOCKKEY": "805-39" }, "geometry": { "type": "Point", "coordinates": [ 695421.877599956933409, 336726.54128853045404 ] } },
    { "type": "Feature", "properties": { "PLACENAME": "Teirumnīku purva taka", "PLACESUBTY": 3, "REG_CODE": "8", "LVM_DISTRI": "22825", "BLOCKKEY": "808-90" }, "geometry": { "type": "Point", "coordinates": [ 680299.41820022277534, 289821.354293322190642 ] } },
    { "type": "Feature", "properties": { "PLACENAME": "Atpūtas vieta pie Soročkas ezera", "PLACESUBTY": 2, "REG_CODE": "8", "LVM_DISTRI": "22825", "BLOCKKEY": "809-249" }, "geometry": { "type": "Point", "coordinates": [ 702832.098300063051283, 239137.630287291482091 ] } },
    { "type": "Feature", "properties": { "PLACENAME": "Atpūtas vieta pie Līdaču (Leidaču) ezera", "PLACESUBTY": 2, "REG_CODE": "8", "LVM_DISTRI": "22825", "BLOCKKEY": "809-321" }, "geometry": { "type": "Point", "coordinates": [ 689245.333600249839947, 236694.929291643202305 ] } },
    { "type": "Feature", "properties": { "PLACENAME": "Basu vilkatu akmens", "PLACESUBTY": 1, "REG_CODE": "7", "LVM_DISTRI": "22728", "BLOCKKEY": "712-35" }, "geometry": { "type": "Point", "coordinates": [ 435698.792599997308571, 359030.655899982899427 ] } },
    { "type": "Feature", "properties": { "PLACENAME": "Grebļukalna taka", "PLACESUBTY": 3, "REG_CODE": "8", "LVM_DISTRI": "22827", "BLOCKKEY": "812-235" }, "geometry": { "type": "Point", "coordinates": [ 755183.695194270694628, 233478.877849852666259 ] } },
    { "type": "Feature", "properties": { "PLACENAME": "Atpūtas vieta \"Krišjāņu Staburags\"", "PLACESUBTY": 2, "REG_CODE": "8", "LVM_DISTRI": "22826", "BLOCKKEY": "807-100" }, "geometry": { "type": "Point", "coordinates": [ 700858.447499925037846, 300323.896587072871625 ] } },
    { "type": "Feature", "properties": { "PLACENAME": "Atpūtas vieta pie Ūdriņām", "PLACESUBTY": 2, "REG_CODE": "1", "LVM_DISTRI": "22122", "BLOCKKEY": "102-437" }, "geometry": { "type": "Point", "coordinates": [ 600172.590600027819164, 387642.412299775518477 ] } },
    { "type": "Feature", "properties": { "PLACENAME": "Atpūtas vieta pie Kokšu ezera", "PLACESUBTY": 2, "REG_CODE": "1", "LVM_DISTRI": "22122", "BLOCKKEY": "103-143" }, "geometry": { "type": "Point", "coordinates": [ 623883.878400074667297, 394263.627699194476008 ] } },
    { "type": "Feature", "properties": { "PLACENAME": "Silvas dendrārijs", "PLACESUBTY": 1, "REG_CODE": "1", "LVM_DISTRI": "22123", "BLOCKKEY": "104-180" }, "geometry": { "type": "Point", "coordinates": [ 617332.867100060218945, 364003.538299442268908 ] } },
    { "type": "Feature", "properties": { "PLACENAME": "Atpūtas vieta \"Likvertene\"", "PLACESUBTY": 2, "REG_CODE": "5", "LVM_DISTRI": "22527", "BLOCKKEY": "509-115" }, "geometry": { "type": "Point", "coordinates": [ 518546.502700000128243, 252593.421199998818338 ] } },
    { "type": "Feature", "properties": { "PLACENAME": "LVM Vijciema čiekurkalte", "PLACESUBTY": 7, "REG_CODE": "1", "LVM_DISTRI": "22122", "BLOCKKEY": "103-591" }, "geometry": { "type": "Point", "coordinates": [ 621929.435900070238858, 385178.88079927675426 ] } },
    { "type": "Feature", "properties": { "PLACENAME": "Atpūtas vieta pie Niedrāja ezera \"Makšķernieku vieta\"", "PLACESUBTY": 2, "REG_CODE": "1", "LVM_DISTRI": "22123", "BLOCKKEY": "104-128" }, "geometry": { "type": "Point", "coordinates": [ 618371.70400006219279, 367212.697399407625198 ] } },
    { "type": "Feature", "properties": { "PLACENAME": "Atpūtas vieta pie Klievezera", "PLACESUBTY": 2, "REG_CODE": "1", "LVM_DISTRI": "22123", "BLOCKKEY": "104-161" }, "geometry": { "type": "Point", "coordinates": [ 614628.877000054111704, 365104.009799513965845 ] } },
    { "type": "Feature", "properties": { "PLACENAME": "Biotopu taka pie Zīles", "PLACESUBTY": 3, "REG_CODE": "1", "LVM_DISTRI": "22121", "BLOCKKEY": "103-57" }, "geometry": { "type": "Point", "coordinates": [ 621981.918000069563277, 397483.68009926378727 ] } },
    { "type": "Feature", "properties": { "PLACENAME": "Plostu sienamā vieta", "PLACESUBTY": 2, "REG_CODE": "1", "LVM_DISTRI": "22122", "BLOCKKEY": "103-166" }, "geometry": { "type": "Point", "coordinates": [ 619843.162500064470805, 393845.907099340111017 ] } },
    { "type": "Feature", "properties": { "PLACENAME": "Atpūtas vieta pie Niedrāja ezera \"Pussala\"", "PLACESUBTY": 2, "REG_CODE": "1", "LVM_DISTRI": "22123", "BLOCKKEY": "104-129" }, "geometry": { "type": "Point", "coordinates": [ 618635.664100062567741, 367807.317199398763478 ] } },
    { "type": "Feature", "properties": { "PLACENAME": "Atpūtas vieta pie Niedrāja ezera \"Zalkšu vieta\"", "PLACESUBTY": 2, "REG_CODE": "1", "LVM_DISTRI": "22123", "BLOCKKEY": "104-128" }, "geometry": { "type": "Point", "coordinates": [ 618329.12980006239377, 367604.380099409259856 ] } },
    { "type": "Feature", "properties": { "PLACENAME": "Atpūtas vieta \"Berlīnes krustojums\"", "PLACESUBTY": 2, "REG_CODE": "5", "LVM_DISTRI": "22521", "BLOCKKEY": "501-117" }, "geometry": { "type": "Point", "coordinates": [ 548934.511100000469014, 301534.505999994464219 ] } },
    { "type": "Feature", "properties": { "PLACENAME": "Ūdens tūristu nakšņošanas vieta pie Ogres upes \"Stāvais krasts\"", "PLACESUBTY": 2, "REG_CODE": "5", "LVM_DISTRI": "22521", "BLOCKKEY": "502-212" }, "geometry": { "type": "Point", "coordinates": [ 576697.591700007324107, 296706.140599957667291 ] } },
    { "type": "Feature", "properties": { "PLACENAME": "Atpūtas vieta \"Kalnamuižas ezers\"", "PLACESUBTY": 2, "REG_CODE": "5", "LVM_DISTRI": "22524", "BLOCKKEY": "502-506" }, "geometry": { "type": "Point", "coordinates": [ 563985.046200002776459, 275933.718999986536801 ] } },
    { "type": "Feature", "properties": { "PLACENAME": "Atpūtas vieta \"Akmeņkalnu Velnapēda\"", "PLACESUBTY": 2, "REG_CODE": "7", "LVM_DISTRI": "22721", "BLOCKKEY": "702-270" }, "geometry": { "type": "Point", "coordinates": [ 384867.72519994538743, 365802.403099500574172 ] } },
    { "type": "Feature", "properties": { "PLACENAME": "Zilokalnu avots", "PLACESUBTY": 1, "REG_CODE": "7", "LVM_DISTRI": "22722", "BLOCKKEY": "703-125" }, "geometry": { "type": "Point", "coordinates": [ 408931.51399998285342, 386248.408599872142076 ] } },
    { "type": "Feature", "properties": { "PLACENAME": "Liepniekvalka alas", "PLACESUBTY": 1, "REG_CODE": "7", "LVM_DISTRI": "22724", "BLOCKKEY": "706-197" }, "geometry": { "type": "Point", "coordinates": [ 398819.164899970579427, 366759.694399768486619 ] } },
    { "type": "Feature", "properties": { "PLACENAME": "Grīžu velna beņķis", "PLACESUBTY": 1, "REG_CODE": "7", "LVM_DISTRI": "22726", "BLOCKKEY": "704-147" }, "geometry": { "type": "Point", "coordinates": [ 366037.572099894226994, 361939.432998768985271 ] } },
    { "type": "Feature", "properties": { "PLACENAME": "Kamparkalna skatu tornis", "PLACESUBTY": 1, "REG_CODE": "7", "LVM_DISTRI": "22727", "BLOCKKEY": "711-389" }, "geometry": { "type": "Point", "coordinates": [ 418089.299599989026319, 342071.011599935591221 ] } },
    { "type": "Feature", "properties": { "PLACENAME": "Atpūtas vieta pie Vēžezera", "PLACESUBTY": 2, "REG_CODE": "7", "LVM_DISTRI": "22727", "BLOCKKEY": "714-322" }, "geometry": { "type": "Point", "coordinates": [ 399686.696199971367605, 332597.059599787928164 ] } },
    { "type": "Feature", "properties": { "PLACENAME": "LVM atpūtas un tūrisma centrs \"Spāre\"", "PLACESUBTY": 7, "REG_CODE": "7", "LVM_DISTRI": "22727", "BLOCKKEY": "711-386" }, "geometry": { "type": "Point", "coordinates": [ 394237.723099962982815, 343049.971599706448615 ] } },
    { "type": "Feature", "properties": { "PLACENAME": "Atpūtas vieta \"Novadnieki\"", "PLACESUBTY": 2, "REG_CODE": "7", "LVM_DISTRI": "22729", "BLOCKKEY": "713-399" }, "geometry": { "type": "Point", "coordinates": [ 385640.140399945841637, 330293.924899540841579 ] } },
    { "type": "Feature", "properties": { "PLACENAME": "Atpūtas vieta \"Irbes ieteka\"", "PLACESUBTY": 2, "REG_CODE": "7", "LVM_DISTRI": "22723", "BLOCKKEY": "702-1" }, "geometry": { "type": "Point", "coordinates": [ 389553.23199995525647, 390508.627999598160386 ] } },
    { "type": "Feature", "properties": { "PLACENAME": "Atpūtas vieta \"Driksnas sils\"", "PLACESUBTY": 2, "REG_CODE": "8", "LVM_DISTRI": "22821", "BLOCKKEY": "801-269" }, "geometry": { "type": "Point", "coordinates": [ 635447.075200118357316, 283970.55959880631417 ] } },
    { "type": "Feature", "properties": { "PLACENAME": "Atpūtas vieta \"Komsomoļskaja izba\"", "PLACESUBTY": 2, "REG_CODE": "3", "LVM_DISTRI": "22327", "BLOCKKEY": "313-104" }, "geometry": { "type": "Point", "coordinates": [ 675172.712200320092961, 178471.936395105905831 ] } },
    { "type": "Feature", "properties": { "PLACENAME": "Atpūtas vieta Cīravas mežaparkā", "PLACESUBTY": 2, "REG_CODE": "2", "LVM_DISTRI": "22223", "BLOCKKEY": "203-408" }, "geometry": { "type": "Point", "coordinates": [ 339655.410299787879921, 290082.976096694357693 ] } },
    { "type": "Feature", "properties": { "PLACENAME": "Atpūtas vieta \"Melnais dīķis\"", "PLACESUBTY": 2, "REG_CODE": "7", "LVM_DISTRI": "22729", "BLOCKKEY": "713-186" }, "geometry": { "type": "Point", "coordinates": [ 367905.115499897394329, 333525.215098907239735 ] } },
    { "type": "Feature", "properties": { "PLACENAME": "Atpūtas vieta pie Zummera ezera", "PLACESUBTY": 2, "REG_CODE": "1", "LVM_DISTRI": "22123", "BLOCKKEY": "104-130" }, "geometry": { "type": "Point", "coordinates": [ 619564.637500065378845, 367520.356999372132123 ] } },
    { "type": "Feature", "properties": { "PLACENAME": "Kungu kapi", "PLACESUBTY": 1, "REG_CODE": "1", "LVM_DISTRI": "22124", "BLOCKKEY": "105-342" }, "geometry": { "type": "Point", "coordinates": [ 644032.888600136036985, 376461.811598062515259 ] } },
    { "type": "Feature", "properties": { "PLACENAME": "Atpūtas vieta pie Tupurīša ezera", "PLACESUBTY": 2, "REG_CODE": "1", "LVM_DISTRI": "22123", "BLOCKKEY": "104-162" }, "geometry": { "type": "Point", "coordinates": [ 615403.771100054960698, 365442.663399492390454 ] } },
    { "type": "Feature", "properties": { "PLACENAME": "Numernes skatu tornis", "PLACESUBTY": 1, "REG_CODE": "8", "LVM_DISTRI": "22826", "BLOCKKEY": "810-224" }, "geometry": { "type": "Point", "coordinates": [ 713061.056099406676367, 305639.503281456418335 ] } },
    { "type": "Feature", "properties": { "PLACENAME": "Atpūtas vieta \"Besetka\"", "PLACESUBTY": 2, "REG_CODE": "3", "LVM_DISTRI": "22325", "BLOCKKEY": "310-16" }, "geometry": { "type": "Point", "coordinates": [ 659843.752300233813003, 223650.347197011113167 ] } },
    { "type": "Feature", "properties": { "PLACENAME": "Atpūtas vieta \"Raibais stuburiņš\"", "PLACESUBTY": 2, "REG_CODE": "3", "LVM_DISTRI": "22322", "BLOCKKEY": "305-55" }, "geometry": { "type": "Point", "coordinates": [ 622658.901400077505969, 253647.395999362692237 ] } },
    { "type": "Feature", "properties": { "PLACENAME": "Skaņaiskalns", "PLACESUBTY": 1, "REG_CODE": "4", "LVM_DISTRI": "22422", "BLOCKKEY": "403-230" }, "geometry": { "type": "Point", "coordinates": [ 559091.827700002118945, 415033.265199988149107 ] } },
    { "type": "Feature", "properties": { "PLACENAME": "Atpūtas vieta pie Skaistkalnes karsta kritenēm", "PLACESUBTY": 2, "REG_CODE": "5", "LVM_DISTRI": "22523", "BLOCKKEY": "505-396" }, "geometry": { "type": "Point", "coordinates": [ 542782.759, 249764.156999998725951 ] } },
    { "type": "Feature", "properties": { "PLACENAME": "Atpūtas vieta pie Dziļūta ezera", "PLACESUBTY": 2, "REG_CODE": "8", "LVM_DISTRI": "22825", "BLOCKKEY": "809-95" }, "geometry": { "type": "Point", "coordinates": [ 725711.993298871209845, 252951.67087543848902 ] } },
    { "type": "Feature", "properties": { "PLACENAME": "Slutišķu krauja", "PLACESUBTY": 1, "REG_CODE": "3", "LVM_DISTRI": "22326", "BLOCKKEY": "310" }, "geometry": { "type": "Point", "coordinates": [ 679673.722300314926542, 198983.380094156600535 ] } },
    { "type": "Feature", "properties": { "PLACENAME": "Atpūtas vieta pie Viļānu ezers", "PLACESUBTY": 2, "REG_CODE": "8", "LVM_DISTRI": "22825", "BLOCKKEY": "808-278" }, "geometry": { "type": "Point", "coordinates": [ 680826.348300242330879, 270620.040693365968764 ] } },
    { "type": "Feature", "properties": { "PLACENAME": "Vecupes taka", "PLACESUBTY": 3, "REG_CODE": "6", "LVM_DISTRI": "22621", "BLOCKKEY": "601-57" }, "geometry": { "type": "Point", "coordinates": [ 452555.770399999222718, 337780.747199995443225 ] } },
    { "type": "Feature", "properties": { "PLACENAME": "Plieņciema kāpas taka", "PLACESUBTY": 3, "REG_CODE": "6", "LVM_DISTRI": "22621", "BLOCKKEY": "601-362" }, "geometry": { "type": "Point", "coordinates": [ 455140.190699999569915, 327328.397699997760355 ] } },
    { "type": "Feature", "properties": { "PLACENAME": "Lāčupes dendroloģiskie stādījumi", "PLACESUBTY": 1, "REG_CODE": "6", "LVM_DISTRI": "22621", "BLOCKKEY": "601-525" }, "geometry": { "type": "Point", "coordinates": [ 460894.627099999866914, 322660.38529999833554 ] } },
    { "type": "Feature", "properties": { "PLACENAME": "Čužu purva taka", "PLACESUBTY": 3, "REG_CODE": "6", "LVM_DISTRI": "22622", "BLOCKKEY": "602-104" }, "geometry": { "type": "Point", "coordinates": [ 425200.52339999366086, 320028.109499962069094 ] } },
    { "type": "Feature", "properties": { "PLACENAME": "Zaļenieku dabas parks", "PLACESUBTY": 1, "REG_CODE": "6", "LVM_DISTRI": "22626", "BLOCKKEY": "607-252" }, "geometry": { "type": "Point", "coordinates": [ 470457.982200000318699, 265625.402799999341369 ] } },
    { "type": "Feature", "properties": { "PLACENAME": "Zaķu pļava (aiz muižas pie upes)", "PLACESUBTY": 1, "REG_CODE": "6", "LVM_DISTRI": "22626", "BLOCKKEY": "611-162" }, "geometry": { "type": "Point", "coordinates": [ 471575.222099999897182, 252762.726700000464916 ] } },
    { "type": "Feature", "properties": { "PLACENAME": "Ziemassvētku kauju vieta piecu ceļu krustā", "PLACESUBTY": 2, "REG_CODE": "6", "LVM_DISTRI": "22628", "BLOCKKEY": "609-50" }, "geometry": { "type": "Point", "coordinates": [ 481487.518899999500718, 299183.484999998472631 ] } },
    { "type": "Feature", "properties": { "PLACENAME": "LVM Tērvetes ūdenskrātuve", "PLACESUBTY": 7, "REG_CODE": "6", "LVM_DISTRI": "22626", "BLOCKKEY": "607-199" }, "geometry": { "type": "Point", "coordinates": [ 463752.462699999799952, 261617.150099999271333 ] } },
    { "type": "Feature", "properties": { "PLACENAME": "LVM Lielauces ezers", "PLACESUBTY": 7, "REG_CODE": "6", "LVM_DISTRI": "22625", "BLOCKKEY": "606-224" }, "geometry": { "type": "Point", "coordinates": [ 432444.480999995721504, 265043.455999981611967 ] } },
    { "type": "Feature", "properties": { "PLACENAME": "Ložmetējkalns", "PLACESUBTY": 1, "REG_CODE": "6", "LVM_DISTRI": "22628", "BLOCKKEY": "609-7" }, "geometry": { "type": "Point", "coordinates": [ 479233.323300000280142, 302499.194299999624491 ] } },
    { "type": "Feature", "properties": { "PLACENAME": "Atpūtas vieta \"Tildangas\"", "PLACESUBTY": 2, "REG_CODE": "7", "LVM_DISTRI": "22729", "BLOCKKEY": "713-279" }, "geometry": { "type": "Point", "coordinates": [ 387747.937499950523488, 335398.016799584962428 ] } },
    { "type": "Feature", "properties": { "PLACENAME": "Atpūtas vieta \"Kondavnieki\"", "PLACESUBTY": 2, "REG_CODE": "3", "LVM_DISTRI": "22325", "BLOCKKEY": "310-58" }, "geometry": { "type": "Point", "coordinates": [ 664005.639000254450366, 218861.012196533381939 ] } },
    { "type": "Feature", "properties": { "PLACENAME": "Jātnieku klubs TELFAS", "PLACESUBTY": 2, "REG_CODE": "5", "LVM_DISTRI": "22526", "BLOCKKEY": "508-101" }, "geometry": { "type": "Point", "coordinates": [ 524201.798999999649823, 287564.082899999804795 ] } },
    { "type": "Feature", "properties": { "PLACENAME": "Atpūtas vieta \"Dzelzs briedis\"", "PLACESUBTY": 2, "REG_CODE": "7", "LVM_DISTRI": "22726", "BLOCKKEY": "709-101" }, "geometry": { "type": "Point", "coordinates": [ 371622.413399909972213, 351578.143999055959284 ] } },
    { "type": "Feature", "properties": { "PLACENAME": "Skrīveru dendroloģiskais parks", "PLACESUBTY": 1, "REG_CODE": "5", "LVM_DISTRI": "22524", "BLOCKKEY": "502-515" }, "geometry": { "type": "Point", "coordinates": [ 564731.70190000301227, 275264.277699982747436 ] } },
    { "type": "Feature", "properties": { "PLACENAME": "Skrīveru dendroloģiskā parka strūklaka.", "PLACESUBTY": 1, "REG_CODE": "5", "LVM_DISTRI": "22524", "BLOCKKEY": "502-515" }, "geometry": { "type": "Point", "coordinates": [ 564750.473900003009476, 275158.504699984565377 ] } },
    { "type": "Feature", "properties": { "PLACENAME": "Atpūtas vieta \"Numernes valnis\"", "PLACESUBTY": 2, "REG_CODE": "8", "LVM_DISTRI": "22826", "BLOCKKEY": "810-204" }, "geometry": { "type": "Point", "coordinates": [ 713052.324899407918565, 305639.970681459642947 ] } },
    { "type": "Feature", "properties": { "PLACENAME": "Atpūtas vieta Cīravas mežaparkā", "PLACESUBTY": 2, "REG_CODE": "2", "LVM_DISTRI": "22223", "BLOCKKEY": "203-408" }, "geometry": { "type": "Point", "coordinates": [ 339248.381399787322152, 290008.232296644710004 ] } },
    { "type": "Feature", "properties": { "PLACENAME": "Fašisma upuru piemiņas vietas Rumbas pagastā", "PLACESUBTY": 8, "REG_CODE": "2", "LVM_DISTRI": "22222", "BLOCKKEY": "202-350" }, "geometry": { "type": "Point", "coordinates": [ 382370.785899937502109, 320104.272899462841451 ] } },
    { "type": "Feature", "properties": { "PLACENAME": "Atpūtas vieta pie Bārtas upes", "PLACESUBTY": 2, "REG_CODE": "2", "LVM_DISTRI": "22231", "BLOCKKEY": "209-434" }, "geometry": { "type": "Point", "coordinates": [ 324506.941199732595123, 250056.77449459489435 ] } },
    { "type": "Feature", "properties": { "PLACENAME": "Atpūtas vieta \"Pērkules krauja\"", "PLACESUBTY": 2, "REG_CODE": "3", "LVM_DISTRI": "22327", "BLOCKKEY": "313-114" }, "geometry": { "type": "Point", "coordinates": [ 672520.393100311979651, 175212.672895551659167 ] } },
    { "type": "Feature", "properties": { "PLACENAME": "Liepupes pilskalns", "PLACESUBTY": 1, "REG_CODE": "4", "LVM_DISTRI": "22423", "BLOCKKEY": "405-332" }, "geometry": { "type": "Point", "coordinates": [ 525661.169499999727122, 369594.950599999167025 ] } },
    { "type": "Feature", "properties": { "PLACENAME": "Atpūtas vieta \"Torņa krusts\"", "PLACESUBTY": 2, "REG_CODE": "6", "LVM_DISTRI": "22622", "BLOCKKEY": "602-364" }, "geometry": { "type": "Point", "coordinates": [ 416965.22489998844685, 303589.343399932608008 ] } },
    { "type": "Feature", "properties": { "PLACENAME": "Atpūtas vieta \"Līdaces ezers\"", "PLACESUBTY": 2, "REG_CODE": "5", "LVM_DISTRI": "22522", "BLOCKKEY": "503-617" }, "geometry": { "type": "Point", "coordinates": [ 607594.136500041233376, 280747.516399700194597 ] } },
    { "type": "Feature", "properties": { "PLACENAME": "Atpūtas vieta \"Zīvartiņš\"", "PLACESUBTY": 2, "REG_CODE": "6", "LVM_DISTRI": "22621", "BLOCKKEY": "601-380" }, "geometry": { "type": "Point", "coordinates": [ 456542.010999999591149, 325719.879799996502697 ] } },
    { "type": "Feature", "properties": { "PLACENAME": "Bīlavu velna laiva", "PLACESUBTY": 1, "REG_CODE": "7", "LVM_DISTRI": "22724", "BLOCKKEY": "707-123" }, "geometry": { "type": "Point", "coordinates": [ 421730.159799991291948, 365311.476099949330091 ] } },
    { "type": "Feature", "properties": { "PLACENAME": "Atpūtas vieta pie Kovšu ezera (Kaušezers)", "PLACESUBTY": 2, "REG_CODE": "8", "LVM_DISTRI": "22827", "BLOCKKEY": "812-193" }, "geometry": { "type": "Point", "coordinates": [ 750070.295795439160429, 238885.42415530513972 ] } },
    { "type": "Feature", "properties": { "PLACENAME": "Atpūtas vieta pie Gulbju ezera", "PLACESUBTY": 2, "REG_CODE": "7", "LVM_DISTRI": "22727", "BLOCKKEY": "711-219" }, "geometry": { "type": "Point", "coordinates": [ 394346.292399962898344, 343112.605199709534645 ] } },
    { "type": "Feature", "properties": { "PLACENAME": "Atpūtas vieta \"Akmens\"", "PLACESUBTY": 2, "REG_CODE": "8", "LVM_DISTRI": "22825", "BLOCKKEY": "808-24" }, "geometry": { "type": "Point", "coordinates": [ 694263.370000074850395, 298666.673289440572262 ] } },
    { "type": "Feature", "properties": { "PLACENAME": "Atpūtas vieta pie Sesavas ezera", "PLACESUBTY": 2, "REG_CODE": "6", "LVM_DISTRI": "22625", "BLOCKKEY": "606-146" }, "geometry": { "type": "Point", "coordinates": [ 439591.671999997925013, 270303.983199988491833 ] } },
    { "type": "Feature", "properties": { "PLACENAME": "Atpūtas vieta \"Liliju ezers\"", "PLACESUBTY": 2, "REG_CODE": "6", "LVM_DISTRI": "22623", "BLOCKKEY": "604-85" }, "geometry": { "type": "Point", "coordinates": [ 525191.966699999873526, 292167.211299999617 ] } },
    { "type": "Feature", "properties": { "PLACENAME": "Vedzes dabas taka", "PLACESUBTY": 1, "REG_CODE": "5", "LVM_DISTRI": "22522", "BLOCKKEY": "503-115" }, "geometry": { "type": "Point", "coordinates": [ 587218.864700014237314, 313567.457399909384549 ] } },
    { "type": "Feature", "properties": { "PLACENAME": "Rojas dabas taka", "PLACESUBTY": 3, "REG_CODE": "7", "LVM_DISTRI": "22722", "BLOCKKEY": "707-183" }, "geometry": { "type": "Point", "coordinates": [ 425067.212599993566982, 375661.661699959076941 ] } },
    { "type": "Feature", "properties": { "PLACENAME": "Laukezera velotaka", "PLACESUBTY": 3, "REG_CODE": "3", "LVM_DISTRI": "22322", "BLOCKKEY": "302-108" }, "geometry": { "type": "Point", "coordinates": [ 624432.584500082419254, 263261.156599299050868 ] } },
    { "type": "Feature", "properties": { "PLACENAME": "Dziesmu svētku taka", "PLACESUBTY": 3, "REG_CODE": "4", "LVM_DISTRI": "22425", "BLOCKKEY": "407-248" }, "geometry": { "type": "Point", "coordinates": [ 565070.368600002955645, 384126.28329998254776 ] } },
    { "type": "Feature", "properties": { "PLACENAME": "Kūku taka", "PLACESUBTY": 3, "REG_CODE": "3", "LVM_DISTRI": "22322", "BLOCKKEY": "302-114" }, "geometry": { "type": "Point", "coordinates": [ 626852.452900089905597, 266321.114399210549891 ] } },
    { "type": "Feature", "properties": { "PLACENAME": "Parks \"Zibeņi\"", "PLACESUBTY": 2, "REG_CODE": "4", "LVM_DISTRI": "22426", "BLOCKKEY": "408-250" }, "geometry": { "type": "Point", "coordinates": [ 518007.429600000439677, 329979.637099999934 ] } },
    { "type": "Feature", "properties": { "PLACENAME": "Atpūtas taka dabas parkā “Piejūra” Carnikavā", "PLACESUBTY": 3, "REG_CODE": "4", "LVM_DISTRI": "22426", "BLOCKKEY": "408-217" }, "geometry": { "type": "Point", "coordinates": [ 515226.809799999871757, 332914.783499999903 ] } },
    { "type": "Feature", "properties": { "PLACENAME": "Atpūtas vieta \"Doles sala\"", "PLACESUBTY": 2, "REG_CODE": "6", "LVM_DISTRI": "22623", "BLOCKKEY": "604-5" }, "geometry": { "type": "Point", "coordinates": [ 512285.651200000196695, 302459.556399998255074 ] } }
    ]
    }